<?xml version="1.0" encoding="UTF-8"?>
<kml xmlns="http://www.opengis.net/kml/2.2">
  <Document>
    <name>徒歩圏内15分</name>
    <description/>
    <Style id="icon-1899-0288D1-nodesc-normal">
      <IconStyle>
        <color>ffd18802</color>
        <scale>1</scale>
        <Icon>
          <href>https://www.gstatic.com/mapspro/images/stock/503-wht-blank_maps.png</href>
        </Icon>
        <hotSpot x="32" xunits="pixels" y="64" yunits="insetPixels"/>
      </IconStyle>
      <LabelStyle>
        <scale>0</scale>
      </LabelStyle>
      <BalloonStyle>
        <text><![CDATA[<h3>$[name]</h3>]]></text>
      </BalloonStyle>
    </Style>
    <Style id="icon-1899-0288D1-nodesc-highlight">
      <IconStyle>
        <color>ffd18802</color>
        <scale>1</scale>
        <Icon>
          <href>https://www.gstatic.com/mapspro/images/stock/503-wht-blank_maps.png</href>
        </Icon>
        <hotSpot x="32" xunits="pixels" y="64" yunits="insetPixels"/>
      </IconStyle>
      <LabelStyle>
        <scale>1</scale>
      </LabelStyle>
      <BalloonStyle>
        <text><![CDATA[<h3>$[name]</h3>]]></text>
      </BalloonStyle>
    </Style>
    <StyleMap id="icon-1899-0288D1-nodesc">
      <Pair>
        <key>normal</key>
        <styleUrl>#icon-1899-0288D1-nodesc-normal</styleUrl>
      </Pair>
      <Pair>
        <key>highlight</key>
        <styleUrl>#icon-1899-0288D1-nodesc-highlight</styleUrl>
      </Pair>
    </StyleMap>
    <Style id="icon-1899-3949AB-nodesc-normal">
      <IconStyle>
        <color>ffab4939</color>
        <scale>1</scale>
        <Icon>
          <href>https://www.gstatic.com/mapspro/images/stock/503-wht-blank_maps.png</href>
        </Icon>
        <hotSpot x="32" xunits="pixels" y="64" yunits="insetPixels"/>
      </IconStyle>
      <LabelStyle>
        <scale>0</scale>
      </LabelStyle>
      <BalloonStyle>
        <text><![CDATA[<h3>$[name]</h3>]]></text>
      </BalloonStyle>
    </Style>
    <Style id="icon-1899-3949AB-nodesc-highlight">
      <IconStyle>
        <color>ffab4939</color>
        <scale>1</scale>
        <Icon>
          <href>https://www.gstatic.com/mapspro/images/stock/503-wht-blank_maps.png</href>
        </Icon>
        <hotSpot x="32" xunits="pixels" y="64" yunits="insetPixels"/>
      </IconStyle>
      <LabelStyle>
        <scale>1</scale>
      </LabelStyle>
      <BalloonStyle>
        <text><![CDATA[<h3>$[name]</h3>]]></text>
      </BalloonStyle>
    </Style>
    <StyleMap id="icon-1899-3949AB-nodesc">
      <Pair>
        <key>normal</key>
        <styleUrl>#icon-1899-3949AB-nodesc-normal</styleUrl>
      </Pair>
      <Pair>
        <key>highlight</key>
        <styleUrl>#icon-1899-3949AB-nodesc-highlight</styleUrl>
      </Pair>
    </StyleMap>
    <Style id="icon-1899-9C27B0-nodesc-normal">
      <IconStyle>
        <color>ffb0279c</color>
        <scale>1</scale>
        <Icon>
          <href>https://www.gstatic.com/mapspro/images/stock/503-wht-blank_maps.png</href>
        </Icon>
        <hotSpot x="32" xunits="pixels" y="64" yunits="insetPixels"/>
      </IconStyle>
      <LabelStyle>
        <scale>0</scale>
      </LabelStyle>
      <BalloonStyle>
        <text><![CDATA[<h3>$[name]</h3>]]></text>
      </BalloonStyle>
    </Style>
    <Style id="icon-1899-9C27B0-nodesc-highlight">
      <IconStyle>
        <color>ffb0279c</color>
        <scale>1</scale>
        <Icon>
          <href>https://www.gstatic.com/mapspro/images/stock/503-wht-blank_maps.png</href>
        </Icon>
        <hotSpot x="32" xunits="pixels" y="64" yunits="insetPixels"/>
      </IconStyle>
      <LabelStyle>
        <scale>1</scale>
      </LabelStyle>
      <BalloonStyle>
        <text><![CDATA[<h3>$[name]</h3>]]></text>
      </BalloonStyle>
    </Style>
    <StyleMap id="icon-1899-9C27B0-nodesc">
      <Pair>
        <key>normal</key>
        <styleUrl>#icon-1899-9C27B0-nodesc-normal</styleUrl>
      </Pair>
      <Pair>
        <key>highlight</key>
        <styleUrl>#icon-1899-9C27B0-nodesc-highlight</styleUrl>
      </Pair>
    </StyleMap>
    <Style id="icon-1899-A52714-nodesc-normal">
      <IconStyle>
        <color>ff1427a5</color>
        <scale>1</scale>
        <Icon>
          <href>https://www.gstatic.com/mapspro/images/stock/503-wht-blank_maps.png</href>
        </Icon>
        <hotSpot x="32" xunits="pixels" y="64" yunits="insetPixels"/>
      </IconStyle>
      <LabelStyle>
        <scale>0</scale>
      </LabelStyle>
      <BalloonStyle>
        <text><![CDATA[<h3>$[name]</h3>]]></text>
      </BalloonStyle>
    </Style>
    <Style id="icon-1899-A52714-nodesc-highlight">
      <IconStyle>
        <color>ff1427a5</color>
        <scale>1</scale>
        <Icon>
          <href>https://www.gstatic.com/mapspro/images/stock/503-wht-blank_maps.png</href>
        </Icon>
        <hotSpot x="32" xunits="pixels" y="64" yunits="insetPixels"/>
      </IconStyle>
      <LabelStyle>
        <scale>1</scale>
      </LabelStyle>
      <BalloonStyle>
        <text><![CDATA[<h3>$[name]</h3>]]></text>
      </BalloonStyle>
    </Style>
    <StyleMap id="icon-1899-A52714-nodesc">
      <Pair>
        <key>normal</key>
        <styleUrl>#icon-1899-A52714-nodesc-normal</styleUrl>
      </Pair>
      <Pair>
        <key>highlight</key>
        <styleUrl>#icon-1899-A52714-nodesc-highlight</styleUrl>
      </Pair>
    </StyleMap>
    <Style id="icon-1899-DB4436-nodesc-normal">
      <IconStyle>
        <color>ff3644db</color>
        <scale>1</scale>
        <Icon>
          <href>https://www.gstatic.com/mapspro/images/stock/503-wht-blank_maps.png</href>
        </Icon>
        <hotSpot x="32" xunits="pixels" y="64" yunits="insetPixels"/>
      </IconStyle>
      <LabelStyle>
        <scale>0</scale>
      </LabelStyle>
      <BalloonStyle>
        <text><![CDATA[<h3>$[name]</h3>]]></text>
      </BalloonStyle>
    </Style>
    <Style id="icon-1899-DB4436-nodesc-highlight">
      <IconStyle>
        <color>ff3644db</color>
        <scale>1</scale>
        <Icon>
          <href>https://www.gstatic.com/mapspro/images/stock/503-wht-blank_maps.png</href>
        </Icon>
        <hotSpot x="32" xunits="pixels" y="64" yunits="insetPixels"/>
      </IconStyle>
      <LabelStyle>
        <scale>1</scale>
      </LabelStyle>
      <BalloonStyle>
        <text><![CDATA[<h3>$[name]</h3>]]></text>
      </BalloonStyle>
    </Style>
    <StyleMap id="icon-1899-DB4436-nodesc">
      <Pair>
        <key>normal</key>
        <styleUrl>#icon-1899-DB4436-nodesc-normal</styleUrl>
      </Pair>
      <Pair>
        <key>highlight</key>
        <styleUrl>#icon-1899-DB4436-nodesc-highlight</styleUrl>
      </Pair>
    </StyleMap>
    <Style id="line-1267FF-5000-nodesc-normal">
      <LineStyle>
        <color>ffff6712</color>
        <width>5</width>
      </LineStyle>
      <BalloonStyle>
        <text><![CDATA[<h3>$[name]</h3>]]></text>
      </BalloonStyle>
    </Style>
    <Style id="line-1267FF-5000-nodesc-highlight">
      <LineStyle>
        <color>ffff6712</color>
        <width>7.5</width>
      </LineStyle>
      <BalloonStyle>
        <text><![CDATA[<h3>$[name]</h3>]]></text>
      </BalloonStyle>
    </Style>
    <StyleMap id="line-1267FF-5000-nodesc">
      <Pair>
        <key>normal</key>
        <styleUrl>#line-1267FF-5000-nodesc-normal</styleUrl>
      </Pair>
      <Pair>
        <key>highlight</key>
        <styleUrl>#line-1267FF-5000-nodesc-highlight</styleUrl>
      </Pair>
    </StyleMap>
    <Style id="poly-000000-1200-77-nodesc-normal">
      <LineStyle>
        <color>ff000000</color>
        <width>1.2</width>
      </LineStyle>
      <PolyStyle>
        <color>4d000000</color>
        <fill>1</fill>
        <outline>1</outline>
      </PolyStyle>
      <BalloonStyle>
        <text><![CDATA[<h3>$[name]</h3>]]></text>
      </BalloonStyle>
    </Style>
    <Style id="poly-000000-1200-77-nodesc-highlight">
      <LineStyle>
        <color>ff000000</color>
        <width>1.8</width>
      </LineStyle>
      <PolyStyle>
        <color>4d000000</color>
        <fill>1</fill>
        <outline>1</outline>
      </PolyStyle>
      <BalloonStyle>
        <text><![CDATA[<h3>$[name]</h3>]]></text>
      </BalloonStyle>
    </Style>
    <StyleMap id="poly-000000-1200-77-nodesc">
      <Pair>
        <key>normal</key>
        <styleUrl>#poly-000000-1200-77-nodesc-normal</styleUrl>
      </Pair>
      <Pair>
        <key>highlight</key>
        <styleUrl>#poly-000000-1200-77-nodesc-highlight</styleUrl>
      </Pair>
    </StyleMap>
    <Folder>
      <name>無題のレイヤ</name>
      <Placemark>
        <name>ポイント 1</name>
        <styleUrl>#icon-1899-3949AB-nodesc</styleUrl>
        <Point>
          <coordinates>
            139.6273519,35.6838824,0
          </coordinates>
        </Point>
      </Placemark>
      <Placemark>
        <name>ミニストップ 杉並成田西店</name>
        <styleUrl>#icon-1899-A52714-nodesc</styleUrl>
        <Point>
          <coordinates>
            139.6330476,35.6944313,0
          </coordinates>
        </Point>
      </Placemark>
      <Placemark>
        <name>成三公園</name>
        <styleUrl>#icon-1899-A52714-nodesc</styleUrl>
        <Point>
          <coordinates>
            139.6354324,35.690367,0
          </coordinates>
        </Point>
      </Placemark>
      <Placemark>
        <name>ポイント 12</name>
        <styleUrl>#icon-1899-A52714-nodesc</styleUrl>
        <Point>
          <coordinates>
            139.6253317,35.6914039,0
          </coordinates>
        </Point>
      </Placemark>
      <Placemark>
        <name>高井戸駅桜並木</name>
        <styleUrl>#icon-1899-A52714-nodesc</styleUrl>
        <Point>
          <coordinates>
            139.6160247,35.683065,0
          </coordinates>
        </Point>
      </Placemark>
      <Placemark>
        <name>ポイント 13</name>
        <styleUrl>#icon-1899-A52714-nodesc</styleUrl>
        <Point>
          <coordinates>
            139.6386407,35.6866406,0
          </coordinates>
        </Point>
      </Placemark>
      <Placemark>
        <name>二之鳥居</name>
        <styleUrl>#icon-1899-A52714-nodesc</styleUrl>
        <Point>
          <coordinates>
            139.6424944,35.6825489,0
          </coordinates>
        </Point>
      </Placemark>
      <Placemark>
        <name>セブン-イレブン 永福北口店</name>
        <styleUrl>#icon-1899-0288D1-nodesc</styleUrl>
        <Point>
          <coordinates>
            139.6455672,35.6785878,0
          </coordinates>
        </Point>
      </Placemark>
      <Placemark>
        <name>杉並区立遊び場90番</name>
        <styleUrl>#icon-1899-0288D1-nodesc</styleUrl>
        <Point>
          <coordinates>
            139.6493639,35.6733651,0
          </coordinates>
        </Point>
      </Placemark>
      <Placemark>
        <name><![CDATA[㈲BREEZE M&Y]]></name>
        <styleUrl>#icon-1899-A52714-nodesc</styleUrl>
        <Point>
          <coordinates>
            139.6123138,35.6853262,0
          </coordinates>
        </Point>
      </Placemark>
      <Placemark>
        <name>杉並区立宮下公園</name>
        <styleUrl>#icon-1899-A52714-nodesc</styleUrl>
        <Point>
          <coordinates>
            139.6146869,35.6910696,0
          </coordinates>
        </Point>
      </Placemark>
      <Placemark>
        <name>杉並区立松渓公園</name>
        <styleUrl>#icon-1899-A52714-nodesc</styleUrl>
        <Point>
          <coordinates>
            139.6213934,35.6948789,0
          </coordinates>
        </Point>
      </Placemark>
      <Placemark>
        <name>プチグレース</name>
        <styleUrl>#icon-1899-A52714-nodesc</styleUrl>
        <Point>
          <coordinates>
            139.6196524,35.693293,0
          </coordinates>
        </Point>
      </Placemark>
      <Placemark>
        <name>三本松の丘</name>
        <styleUrl>#icon-1899-A52714-nodesc</styleUrl>
        <Point>
          <coordinates>
            139.6396205,35.6869851,0
          </coordinates>
        </Point>
      </Placemark>
      <Placemark>
        <name>屋倉橋</name>
        <styleUrl>#icon-1899-A52714-nodesc</styleUrl>
        <Point>
          <coordinates>
            139.6305712,35.6941329,0
          </coordinates>
        </Point>
      </Placemark>
      <Placemark>
        <name>カプリ松ノ木</name>
        <styleUrl>#icon-1899-0288D1-nodesc</styleUrl>
        <Point>
          <coordinates>
            139.6406131,35.6888863,0
          </coordinates>
        </Point>
      </Placemark>
      <Placemark>
        <name>ポイント 28</name>
        <styleUrl>#icon-1899-9C27B0-nodesc</styleUrl>
        <Point>
          <coordinates>
            139.6347002,35.6876372,0
          </coordinates>
        </Point>
      </Placemark>
      <Placemark>
        <name>都立善福寺川緑地カリン広場</name>
        <styleUrl>#icon-1899-A52714-nodesc</styleUrl>
        <Point>
          <coordinates>
            139.6254117,35.6937943,0
          </coordinates>
        </Point>
      </Placemark>
      <Placemark>
        <name>白幡児童遊園</name>
        <styleUrl>#icon-1899-A52714-nodesc</styleUrl>
        <Point>
          <coordinates>
            139.6344561,35.6925216,0
          </coordinates>
        </Point>
      </Placemark>
      <Placemark>
        <name>ポイント 24</name>
        <styleUrl>#icon-1899-A52714-nodesc</styleUrl>
        <Point>
          <coordinates>
            139.6402358,35.6851693,0
          </coordinates>
        </Point>
      </Placemark>
      <Placemark>
        <name>ポイント 25</name>
        <styleUrl>#icon-1899-A52714-nodesc</styleUrl>
        <Point>
          <coordinates>
            139.6132989,35.6838872,0
          </coordinates>
        </Point>
      </Placemark>
      <Placemark>
        <name>柳窪公園 お手洗</name>
        <styleUrl>#icon-1899-0288D1-nodesc</styleUrl>
        <Point>
          <coordinates>
            139.6176549,35.690977,0
          </coordinates>
        </Point>
      </Placemark>
      <Placemark>
        <name>ファミリーマート 杉並宮前二丁目店</name>
        <styleUrl>#icon-1899-0288D1-nodesc</styleUrl>
        <Point>
          <coordinates>
            139.6148871,35.6941316,0
          </coordinates>
        </Point>
      </Placemark>
      <Placemark>
        <name>杉並区立 あかね橋公園</name>
        <styleUrl>#icon-1899-A52714-nodesc</styleUrl>
        <Point>
          <coordinates>
            139.6135042,35.6825315,0
          </coordinates>
        </Point>
      </Placemark>
      <Placemark>
        <name>杉並区立 成田保育園</name>
        <styleUrl>#icon-1899-9C27B0-nodesc</styleUrl>
        <Point>
          <coordinates>
            139.633772,35.689067,0
          </coordinates>
        </Point>
      </Placemark>
      <Placemark>
        <name>ポイント 27</name>
        <styleUrl>#icon-1899-A52714-nodesc</styleUrl>
        <Point>
          <coordinates>
            139.6280156,35.6944425,0
          </coordinates>
        </Point>
      </Placemark>
      <Placemark>
        <name>ポイント 28</name>
        <styleUrl>#icon-1899-A52714-nodesc</styleUrl>
        <Point>
          <coordinates>
            139.6188344,35.6916518,0
          </coordinates>
        </Point>
      </Placemark>
    </Folder>
    <Folder>
      <name>同心円</name>
      <Placemark>
        <name>ポリゴン 1</name>
        <styleUrl>#poly-000000-1200-77-nodesc</styleUrl>
        <Polygon>
          <outerBoundaryIs>
            <LinearRing>
              <tessellate>1</tessellate>
              <coordinates>
                139.6133039,35.6839163,0
                139.6273519,35.6838824,0
                139.6361541,35.678515,0
                139.637247,35.6793155,0
                139.6424247,35.6825489,0
                139.6403544,35.6852102,0
                139.6396143,35.6870698,0
                139.6354244,35.6903452,0
                139.6345995,35.6924623,0
                139.632648,35.6919044,0
                139.6305658,35.694122,0
                139.6255656,35.6937955,0
                139.625329,35.6913778,0
                139.6213119,35.6948253,0
                139.6196551,35.6932712,0
                139.6147084,35.691062,0
                139.6125685,35.6852932,0
                139.6133039,35.6839163,0
              </coordinates>
            </LinearRing>
          </outerBoundaryIs>
        </Polygon>
      </Placemark>
    </Folder>
    <Folder>
      <name>日本、〒166-0015 東京都杉並区成田東２丁目３８−９ から 日本、〒166-0015 東京都杉並区成田東３丁目１５−４ へのルート</name>
      <Placemark>
        <name>日本、〒166-0015 東京都杉並区成田東２丁目３８−９ から 日本、〒166-0015 東京都杉並区成田東３丁目１５−４ へのルート</name>
        <styleUrl>#line-1267FF-5000-nodesc</styleUrl>
        <LineString>
          <tessellate>1</tessellate>
          <coordinates>
            139.63425,35.69076,0
            139.63424,35.69068,0
            139.63424,35.69064,0
            139.63424,35.69052,0
            139.63422,35.69045,0
            139.63434,35.69043,0
            139.63431,35.69031,0
            139.63429,35.69027,0
            139.63426,35.69018,0
            139.63423,35.69011,0
            139.63422,35.69009,0
            139.63417,35.69003,0
            139.63412,35.68998,0
            139.63403,35.68987,0
            139.634,35.68983,0
            139.63398,35.6898,0
            139.63394,35.68974,0
            139.63392,35.68967,0
            139.6339,35.68962,0
            139.63375,35.68937,0
            139.63383,35.68934,0
            139.63382,35.68932,0
            139.63374,35.68918,0
            139.63373,35.68917,0
            139.63366,35.68906,0
            139.63362,35.68901,0
            139.63359,35.68896,0
            139.63375,35.68889,0
            139.63394,35.6888,0
            139.63396,35.68879,0
            139.63392,35.68872,0
            139.63381,35.68853,0
            139.6338,35.68851,0
            139.63373,35.68839,0
            139.63368,35.68831,0
            139.63361,35.68821,0
            139.63358,35.68818,0
            139.63354,35.68813,0
            139.63352,35.68809,0
            139.63347,35.68803,0
            139.63346,35.68801,0
            139.63343,35.68798,0
            139.63348,35.68795,0
            139.63356,35.6879,0
            139.63358,35.68789,0
            139.63366,35.68782,0
            139.63368,35.68781,0
            139.63371,35.68779,0
            139.63378,35.68773,0
            139.63381,35.68771,0
            139.63385,35.68769,0
            139.6339,35.68767,0
            139.63384,35.68763,0
            139.6338,35.68758,0
            139.63376,35.68755,0
            139.63373,35.68752,0
            139.63368,35.68747,0
            139.63362,35.68743,0
            139.63359,35.68742,0
            139.63354,35.68741,0
            139.63341,35.6874,0
            139.63337,35.68739,0
            139.63334,35.68738,0
            139.63332,35.68737,0
            139.6333,35.68732,0
            139.63328,35.6873,0
            139.63309,35.68718,0
            139.63311,35.68715,0
            139.63316,35.68712,0
            139.63313,35.6871,0
            139.63307,35.68706,0
            139.63299,35.68701,0
            139.63306,35.68694,0
            139.63319,35.6868,0
            139.63322,35.68676,0
            139.63326,35.68673,0
            139.63339,35.68665,0
            139.63362,35.68652,0
            139.63377,35.68644,0
            139.63374,35.68638,0
            139.63381,35.68635,0
            139.63372,35.68622,0
            139.6337,35.68619,0
            139.63368,35.6862,0
            139.63362,35.68608,0
            139.63356,35.68596,0
            139.63354,35.68591,0
            139.6335,35.68584,0
            139.63344,35.68574,0
            139.63336,35.6856,0
            139.63334,35.68558,0
            139.63324,35.68543,0
            139.63314,35.68529,0
            139.63311,35.68526,0
            139.63281,35.68537,0
            139.63276,35.68539,0
            139.63274,35.6854,0
            139.63269,35.68542,0
            139.63267,35.68543,0
            139.63261,35.68546,0
            139.63258,35.68547,0
            139.63256,35.68548,0
            139.63251,35.6855,0
            139.63248,35.68551,0
            139.63241,35.68554,0
            139.63229,35.6856,0
            139.63226,35.68543,0
            139.63225,35.68539,0
            139.6321,35.68544,0
            139.63203,35.68547,0
            139.63176,35.68558,0
            139.63149,35.68569,0
            139.63146,35.68569,0
            139.63144,35.68565,0
            139.63144,35.68564,0
            139.63135,35.6854,0
            139.63127,35.68521,0
            139.63123,35.6851,0
            139.63121,35.68503,0
            139.63117,35.68492,0
            139.6311,35.68473,0
            139.63102,35.68453,0
            139.631,35.68447,0
            139.63097,35.68439,0
            139.63096,35.68434,0
            139.63087,35.68412,0
            139.63085,35.68406,0
            139.63075,35.68381,0
            139.63073,35.68373,0
            139.63057,35.68375,0
            139.63053,35.68376,0
            139.63045,35.68378,0
            139.63032,35.68381,0
            139.63017,35.68386,0
            139.63009,35.68388,0
            139.63004,35.68389,0
            139.62999,35.68377,0
            139.62999,35.68376,0
            139.62985,35.68339,0
            139.62973,35.68345,0
            139.62961,35.68351,0
            139.62954,35.68354,0
            139.6295,35.68339,0
            139.62939,35.68345,0
            139.62923,35.68354,0
            139.62902,35.68364,0
            139.62894,35.68368,0
            139.62867,35.68382,0
            139.62859,35.68354,0
            139.62857,35.68348,0
            139.62851,35.68328,0
            139.62849,35.68322,0
            139.6284,35.68288,0
            139.62831,35.6829,0
            139.62761,35.68305,0
            139.62757,35.68308,0
            139.62735,35.68312,0
            139.62731,35.68313,0
            139.62732,35.68316,0
            139.62737,35.6834,0
            139.6274,35.68356,0
            139.62741,35.68363,0
            139.62743,35.68365,0
            139.62733,35.68366,0
            139.62737,35.68388,0
            139.62733,35.68366,0
            139.62697,35.68371,0
            139.62692,35.68372,0
            139.62688,35.68372,0
            139.62682,35.68372,0
            139.62678,35.68371,0
            139.62677,35.6837,0
            139.62675,35.68368,0
            139.62671,35.68363,0
            139.6267,35.68358,0
            139.6267,35.68354,0
            139.62668,35.68344,0
            139.62665,35.68326,0
            139.62662,35.68327,0
            139.62642,35.68329,0
            139.62634,35.6833,0
            139.62624,35.68331,0
            139.62624,35.68342,0
            139.62625,35.68345,0
            139.62626,35.68346,0
            139.62626,35.68347,0
            139.62629,35.6835,0
            139.62641,35.68366,0
            139.62649,35.68375,0
            139.62651,35.68379,0
            139.62652,35.68382,0
            139.62653,35.68386,0
            139.62656,35.68412,0
            139.62656,35.68417,0
            139.6266,35.6845,0
            139.62661,35.68456,0
            139.62721,35.68446,0
            139.6273,35.68445,0
            139.62744,35.6844,0
            139.62748,35.68439,0
            139.62755,35.68438,0
            139.62764,35.68451,0
            139.62759,35.68455,0
            139.62743,35.6846,0
            139.62741,35.68464,0
            139.6271,35.68479,0
            139.62711,35.68482,0
            139.62716,35.68497,0
            139.62718,35.68502,0
            139.6272,35.68506,0
            139.62722,35.68512,0
            139.62733,35.68535,0
            139.62735,35.6854,0
            139.62741,35.68553,0
            139.62759,35.68593,0
            139.62766,35.68609,0
            139.62768,35.68612,0
            139.62787,35.68655,0
            139.62789,35.68659,0
            139.628,35.68685,0
            139.62803,35.68692,0
            139.62806,35.68699,0
            139.62807,35.68703,0
            139.62809,35.68707,0
            139.62831,35.68698,0
            139.62836,35.68714,0
            139.62846,35.68744,0
            139.62848,35.68745,0
            139.62851,35.68747,0
            139.62854,35.68749,0
            139.62858,35.6875,0
            139.62856,35.68754,0
            139.62851,35.68773,0
            139.62849,35.6878,0
            139.62849,35.68783,0
            139.62848,35.68784,0
            139.62849,35.68786,0
            139.62853,35.68787,0
            139.62857,35.68788,0
            139.62871,35.68792,0
            139.62878,35.68794,0
            139.62894,35.688,0
            139.62909,35.68805,0
            139.62914,35.68807,0
            139.62919,35.68809,0
            139.62932,35.68813,0
            139.62944,35.68817,0
            139.6296,35.68821,0
            139.62968,35.68823,0
            139.6297,35.68823,0
            139.62972,35.68823,0
            139.62974,35.68824,0
            139.62977,35.68825,0
            139.6298,35.68827,0
            139.62989,35.68827,0
            139.62991,35.68828,0
            139.63001,35.68828,0
            139.63009,35.68829,0
            139.63021,35.6883,0
            139.63021,35.68832,0
            139.63028,35.68831,0
            139.63054,35.68833,0
            139.63072,35.68836,0
            139.63075,35.68836,0
            139.63076,35.6884,0
            139.6308,35.68855,0
            139.63081,35.68858,0
            139.63084,35.68867,0
            139.63084,35.68869,0
            139.63083,35.68874,0
            139.63084,35.68877,0
            139.63086,35.68883,0
            139.63087,35.68885,0
            139.6309,35.68896,0
            139.63093,35.68907,0
            139.63093,35.68908,0
            139.63095,35.68916,0
            139.63096,35.68917,0
            139.63096,35.68925,0
            139.63096,35.68927,0
            139.63104,35.68924,0
            139.63133,35.68915,0
            139.6314,35.68914,0
            139.63144,35.68913,0
            139.63153,35.68912,0
            139.63161,35.6891,0
            139.63163,35.6891,0
            139.63164,35.6891,0
            139.63165,35.68909,0
            139.6318,35.68902,0
            139.63187,35.68902,0
            139.63204,35.68897,0
            139.63209,35.68895,0
            139.63216,35.68891,0
            139.63218,35.68888,0
            139.6322,35.68886,0
            139.63221,35.68885,0
            139.63222,35.68884,0
            139.63224,35.68884,0
            139.6323,35.68883,0
            139.63235,35.68883,0
            139.63243,35.68882,0
            139.63246,35.68881,0
            139.63253,35.6888,0
            139.63254,35.68883,0
            139.63257,35.6888,0
            139.63261,35.68877,0
            139.63264,35.68874,0
            139.6327,35.68869,0
            139.63273,35.68866,0
            139.63278,35.68877,0
            139.63287,35.68895,0
            139.63291,35.68904,0
            139.63293,35.68907,0
            139.63293,35.6891,0
            139.63294,35.68915,0
            139.63298,35.68953,0
            139.63298,35.68961,0
            139.63298,35.68963,0
            139.63298,35.68967,0
            139.63297,35.68975,0
            139.63296,35.6898,0
            139.63294,35.68986,0
            139.63292,35.68991,0
            139.63289,35.68996,0
            139.63285,35.69001,0
            139.63284,35.69009,0
            139.63284,35.69016,0
            139.63285,35.69022,0
            139.63286,35.69028,0
            139.63288,35.69033,0
            139.6329,35.6904,0
            139.63294,35.6905,0
            139.633,35.69062,0
            139.63307,35.69078,0
            139.63309,35.69081,0
            139.63313,35.69091,0
            139.63316,35.69098,0
            139.63317,35.69102,0
            139.63317,35.69106,0
            139.63319,35.6911,0
            139.63323,35.69115,0
            139.63326,35.69121,0
            139.63329,35.69125,0
            139.63335,35.69137,0
            139.63347,35.69164,0
            139.63351,35.69173,0
            139.63352,35.69175,0
            139.63358,35.69188,0
            139.63361,35.69188,0
            139.63365,35.69187,0
            139.63368,35.69188,0
            139.63383,35.69187,0
            139.63392,35.69186,0
            139.63395,35.69185,0
            139.63394,35.69188,0
            139.63397,35.69199,0
            139.63399,35.69205,0
            139.63401,35.69208,0
            139.63405,35.69213,0
            139.63411,35.69217,0
            139.63417,35.6922,0
            139.63433,35.69228,0
            139.63441,35.6923,0
            139.63444,35.69233,0
            139.63456,35.69242,0
            139.6346,35.69246,0
          </coordinates>
        </LineString>
      </Placemark>
      <Placemark>
        <name>日本、〒166-0015 東京都杉並区成田東２丁目３８−９</name>
        <styleUrl>#icon-1899-DB4436-nodesc</styleUrl>
        <Point>
          <coordinates>
            139.6342486,35.690763,0
          </coordinates>
        </Point>
      </Placemark>
      <Placemark>
        <name>ポイント 1</name>
        <styleUrl>#icon-1899-DB4436-nodesc</styleUrl>
        <Point>
          <coordinates>
            139.6273664,35.6838807,0
          </coordinates>
        </Point>
      </Placemark>
      <Placemark>
        <name>日本、〒166-0015 東京都杉並区成田東３丁目１５−４</name>
        <styleUrl>#icon-1899-DB4436-nodesc</styleUrl>
        <Point>
          <coordinates>
            139.6346042,35.6924601,0
          </coordinates>
        </Point>
      </Placemark>
    </Folder>
    <Folder>
      <name>日本、〒167-0051 東京都杉並区荻窪１丁目３−７ から 二之鳥居 へのルート</name>
      <Placemark>
        <name>日本、〒167-0051 東京都杉並区荻窪１丁目３−７ から 二之鳥居 へのルート</name>
        <styleUrl>#line-1267FF-5000-nodesc</styleUrl>
        <LineString>
          <tessellate>1</tessellate>
          <coordinates>
            139.61887,35.69168,0
            139.61892,35.69167,0
            139.61904,35.69163,0
            139.61923,35.69157,0
            139.61924,35.69156,0
            139.61937,35.69151,0
            139.61942,35.69149,0
            139.6196,35.69139,0
            139.61978,35.69129,0
            139.61979,35.69131,0
            139.6198,35.69131,0
            139.61987,35.69127,0
            139.61985,35.69125,0
            139.6199,35.6912,0
            139.61992,35.69118,0
            139.62001,35.69112,0
            139.6202,35.691,0
            139.62026,35.69097,0
            139.62029,35.69096,0
            139.62033,35.69092,0
            139.62047,35.69083,0
            139.62054,35.69079,0
            139.62054,35.69078,0
            139.62069,35.6907,0
            139.62076,35.69066,0
            139.62078,35.69065,0
            139.62086,35.6906,0
            139.62088,35.69059,0
            139.6209,35.69058,0
            139.62092,35.69056,0
            139.62098,35.69051,0
            139.62116,35.69038,0
            139.62123,35.69032,0
            139.62129,35.69027,0
            139.62133,35.69023,0
            139.62137,35.69019,0
            139.62142,35.69017,0
            139.62145,35.69015,0
            139.62151,35.69017,0
            139.62152,35.69015,0
            139.62157,35.69008,0
            139.62158,35.69006,0
            139.62152,35.69004,0
            139.62176,35.68986,0
            139.62179,35.68984,0
            139.62194,35.68974,0
            139.62196,35.68972,0
            139.62199,35.6897,0
            139.62201,35.68968,0
            139.62203,35.68967,0
            139.62206,35.68964,0
            139.62209,35.68961,0
            139.62212,35.68959,0
            139.62216,35.68958,0
            139.62228,35.68953,0
            139.62235,35.6895,0
            139.62246,35.68945,0
            139.62249,35.68943,0
            139.62259,35.68939,0
            139.62284,35.68929,0
            139.62292,35.68926,0
            139.62297,35.68924,0
            139.62307,35.6892,0
            139.6231,35.68919,0
            139.62326,35.68912,0
            139.6233,35.6891,0
            139.62342,35.68904,0
            139.62345,35.68902,0
            139.62352,35.68899,0
            139.62355,35.68897,0
            139.62373,35.68888,0
            139.62377,35.68886,0
            139.6238,35.68885,0
            139.62401,35.68874,0
            139.62407,35.6887,0
            139.62416,35.68865,0
            139.62413,35.68862,0
            139.62426,35.68855,0
            139.62443,35.68845,0
            139.62447,35.68842,0
            139.6245,35.6884,0
            139.62454,35.68838,0
            139.6246,35.68834,0
            139.62463,35.68832,0
            139.62472,35.68828,0
            139.62476,35.68826,0
            139.62477,35.68825,0
            139.62495,35.68817,0
            139.62501,35.68815,0
            139.62503,35.68815,0
            139.62539,35.68801,0
            139.62544,35.68798,0
            139.62552,35.68795,0
            139.62559,35.68792,0
            139.62565,35.6879,0
            139.62581,35.68783,0
            139.62589,35.68781,0
            139.62595,35.68778,0
            139.62625,35.68766,0
            139.62627,35.68765,0
            139.62633,35.68762,0
            139.62601,35.68708,0
            139.62599,35.68703,0
            139.62603,35.68701,0
            139.62604,35.68701,0
            139.6266,35.68679,0
            139.62647,35.68658,0
            139.62645,35.68653,0
            139.6263,35.6863,0
            139.62626,35.68626,0
            139.62611,35.686,0
            139.62609,35.68596,0
            139.62597,35.68576,0
            139.62596,35.68573,0
            139.62587,35.68559,0
            139.62583,35.6855,0
            139.62574,35.68534,0
            139.62572,35.68531,0
            139.62579,35.68528,0
            139.6258,35.68529,0
            139.62586,35.68526,0
            139.62621,35.68513,0
            139.62625,35.68512,0
            139.62643,35.68505,0
            139.62658,35.685,0
            139.62683,35.6849,0
            139.62691,35.68487,0
            139.62697,35.68484,0
            139.62705,35.68481,0
            139.62705,35.6848,0
            139.62709,35.68478,0
            139.6271,35.68479,0
            139.62741,35.68464,0
            139.62744,35.68463,0
            139.62756,35.68456,0
            139.62759,35.68455,0
            139.62773,35.68447,0
            139.62771,35.68445,0
            139.62766,35.68436,0
            139.62765,35.68434,0
            139.62756,35.68438,0
            139.62755,35.68434,0
            139.62753,35.68426,0
            139.62752,35.68421,0
            139.62751,35.68419,0
            139.62749,35.68409,0
            139.62749,35.68404,0
            139.62748,35.684,0
            139.62746,35.68398,0
            139.62738,35.68399,0
            139.62736,35.68388,0
            139.62732,35.68366,0
            139.62741,35.68365,0
            139.6274,35.68363,0
            139.62739,35.68357,0
            139.62736,35.6834,0
            139.62733,35.68324,0
            139.62732,35.68316,0
            139.62731,35.68312,0
            139.62734,35.68311,0
            139.62755,35.68306,0
            139.62757,35.68306,0
            139.62762,35.68305,0
            139.62832,35.6829,0
            139.62838,35.68289,0
            139.62848,35.68323,0
            139.6285,35.68328,0
            139.62856,35.68349,0
            139.62857,35.68354,0
            139.62866,35.68383,0
            139.62894,35.68368,0
            139.62902,35.68364,0
            139.62923,35.68354,0
            139.62939,35.68345,0
            139.62951,35.68339,0
            139.62951,35.68338,0
            139.62951,35.68339,0
            139.62957,35.68336,0
            139.62964,35.68333,0
            139.62965,35.68333,0
            139.62965,35.68335,0
            139.62967,35.68345,0
            139.62968,35.68347,0
            139.62973,35.68345,0
            139.62984,35.68339,0
            139.62988,35.6835,0
            139.6299,35.68354,0
            139.62998,35.68375,0
            139.63,35.68379,0
            139.63004,35.68389,0
            139.63014,35.68387,0
            139.63032,35.68382,0
            139.63045,35.68378,0
            139.63052,35.68377,0
            139.63059,35.68375,0
            139.63063,35.68375,0
            139.63068,35.68374,0
            139.63079,35.68372,0
            139.63084,35.68371,0
            139.63099,35.68368,0
            139.63128,35.68363,0
            139.63149,35.6836,0
            139.63153,35.6836,0
            139.63164,35.68358,0
            139.63172,35.68357,0
            139.63177,35.68357,0
            139.63184,35.68356,0
            139.63202,35.68355,0
            139.63208,35.68355,0
            139.63239,35.68353,0
            139.63253,35.68353,0
            139.6326,35.68352,0
            139.63266,35.68351,0
            139.63274,35.68351,0
            139.63288,35.68348,0
            139.63295,35.68347,0
            139.63301,35.68347,0
            139.63318,35.68344,0
            139.63328,35.68343,0
            139.63342,35.68341,0
            139.63348,35.6834,0
            139.63368,35.68338,0
            139.63371,35.68337,0
            139.63383,35.68336,0
            139.63387,35.68335,0
            139.63396,35.68334,0
            139.63404,35.68334,0
            139.63404,35.68332,0
            139.63409,35.68331,0
            139.6341,35.68332,0
            139.63445,35.68327,0
            139.63463,35.68325,0
            139.63469,35.68324,0
            139.63477,35.68322,0
            139.63497,35.68318,0
            139.63496,35.68318,0
            139.63505,35.68316,0
            139.63505,35.68317,0
            139.63539,35.6831,0
            139.63569,35.68305,0
            139.63569,35.68303,0
            139.6357,35.68303,0
            139.63576,35.68303,0
            139.63576,35.68305,0
            139.6358,35.68303,0
            139.63584,35.68303,0
            139.63588,35.68302,0
            139.63592,35.68302,0
            139.63595,35.68301,0
            139.63598,35.68301,0
            139.63605,35.68301,0
            139.63606,35.68301,0
            139.63613,35.683,0
            139.63619,35.68299,0
            139.63623,35.68298,0
            139.63662,35.68293,0
            139.63673,35.68291,0
            139.63674,35.68291,0
            139.63681,35.6829,0
            139.63703,35.68288,0
            139.63704,35.68286,0
            139.63707,35.68284,0
            139.63708,35.68283,0
            139.63709,35.68278,0
            139.6371,35.68273,0
            139.6371,35.68272,0
            139.63711,35.68271,0
            139.63712,35.68267,0
            139.63714,35.68258,0
            139.63717,35.68252,0
            139.63721,35.68247,0
            139.63722,35.68246,0
            139.63725,35.68244,0
            139.63729,35.68244,0
            139.63734,35.68241,0
            139.63745,35.68234,0
            139.63761,35.68225,0
            139.63778,35.68217,0
            139.63803,35.68206,0
            139.63808,35.68204,0
            139.63816,35.68201,0
            139.63821,35.68199,0
            139.63853,35.68188,0
            139.63861,35.68185,0
            139.63893,35.68174,0
            139.63928,35.68162,0
            139.63932,35.6816,0
            139.63931,35.68185,0
            139.63998,35.68184,0
            139.64004,35.68184,0
            139.6401,35.68183,0
            139.64048,35.68182,0
            139.64058,35.68184,0
            139.64054,35.68194,0
            139.64053,35.68221,0
            139.64052,35.6823,0
            139.64053,35.68235,0
            139.64053,35.68237,0
            139.64053,35.68239,0
            139.64054,35.68242,0
            139.64054,35.68243,0
            139.64055,35.68244,0
            139.64057,35.68245,0
            139.64058,35.68245,0
            139.6406,35.68246,0
            139.64062,35.68246,0
            139.64088,35.68247,0
            139.6411,35.68248,0
            139.64155,35.6825,0
            139.64199,35.68251,0
            139.64201,35.68252,0
            139.64249,35.68255,0
          </coordinates>
        </LineString>
      </Placemark>
      <Placemark>
        <name>日本、〒167-0051 東京都杉並区荻窪１丁目３−７</name>
        <styleUrl>#icon-1899-DB4436-nodesc</styleUrl>
        <Point>
          <coordinates>
            139.6188671,35.6916838,0
          </coordinates>
        </Point>
      </Placemark>
      <Placemark>
        <name>日本、〒168-0065 東京都杉並区浜田山３丁目３５−１</name>
        <styleUrl>#icon-1899-DB4436-nodesc</styleUrl>
        <Point>
          <coordinates>
            139.6273596,35.6838803,0
          </coordinates>
        </Point>
      </Placemark>
      <Placemark>
        <name>二之鳥居</name>
        <styleUrl>#icon-1899-DB4436-nodesc</styleUrl>
        <Point>
          <coordinates>
            139.6424942,35.6825508,0
          </coordinates>
        </Point>
      </Placemark>
    </Folder>
    <Folder>
      <name>無題のレイヤ</name>
    </Folder>
    <Folder>
      <name>日本、〒168-0061 東京都杉並区大宮２丁目２３ から 日本、〒167-0051 東京都杉並区荻窪１丁目５６−３ 杉並区立児童青少年センター へのルート</name>
      <Placemark>
        <name>日本、〒168-0061 東京都杉並区大宮２丁目２３ から 日本、〒167-0051 東京都杉並区荻窪１丁目５６−３ 杉並区立児童青少年センター へのルート</name>
        <styleUrl>#line-1267FF-5000-nodesc</styleUrl>
        <LineString>
          <tessellate>1</tessellate>
          <coordinates>
            139.64034,35.6852,0
            139.64034,35.68522,0
            139.64034,35.68523,0
            139.64034,35.68525,0
            139.64033,35.68527,0
            139.64031,35.6853,0
            139.64029,35.68532,0
            139.64028,35.68533,0
            139.64027,35.68534,0
            139.64026,35.68535,0
            139.64023,35.68538,0
            139.64022,35.6854,0
            139.64022,35.6855,0
            139.64021,35.68554,0
            139.64019,35.68557,0
            139.64016,35.68557,0
            139.64009,35.68556,0
            139.64004,35.68555,0
            139.63998,35.68553,0
            139.63992,35.6855,0
            139.63987,35.68546,0
            139.63985,35.68545,0
            139.63983,35.68545,0
            139.6398,35.68544,0
            139.63976,35.68544,0
            139.63973,35.68543,0
            139.6397,35.68543,0
            139.63967,35.68544,0
            139.63964,35.68544,0
            139.63961,35.68546,0
            139.63957,35.68543,0
            139.63953,35.68539,0
            139.6395,35.68537,0
            139.63947,35.68536,0
            139.63945,35.68533,0
            139.6394,35.68531,0
            139.63939,35.6853,0
            139.63937,35.68528,0
            139.63935,35.68526,0
            139.63933,35.68524,0
            139.6393,35.6852,0
            139.63926,35.68515,0
            139.63922,35.6851,0
            139.63908,35.68499,0
            139.63906,35.68498,0
            139.639,35.68493,0
            139.63898,35.68494,0
            139.63897,35.68494,0
            139.63896,35.68495,0
            139.63895,35.68495,0
            139.63894,35.68497,0
            139.63891,35.685,0
            139.63885,35.68506,0
            139.63882,35.68509,0
            139.63878,35.68512,0
            139.63877,35.68512,0
            139.63874,35.68515,0
            139.6387,35.68517,0
            139.63868,35.68519,0
            139.63866,35.68519,0
            139.63838,35.68531,0
            139.63837,35.68531,0
            139.63828,35.68534,0
            139.63815,35.68538,0
            139.63808,35.6854,0
            139.63806,35.68541,0
            139.63804,35.68537,0
            139.63792,35.68521,0
            139.6379,35.68518,0
            139.63788,35.68513,0
            139.63786,35.68512,0
            139.63785,35.68511,0
            139.63783,35.68509,0
            139.63782,35.68507,0
            139.6378,35.68505,0
            139.63776,35.68497,0
            139.63775,35.68494,0
            139.63773,35.68487,0
            139.63772,35.68484,0
            139.63771,35.68474,0
            139.6377,35.68464,0
            139.63764,35.68462,0
            139.63763,35.68445,0
            139.63762,35.68436,0
            139.63761,35.6843,0
            139.6376,35.68427,0
            139.63756,35.68417,0
            139.63754,35.68412,0
            139.63747,35.68415,0
            139.63735,35.68422,0
            139.63727,35.68426,0
            139.63721,35.6843,0
            139.63719,35.68431,0
            139.63715,35.68433,0
            139.63709,35.68437,0
            139.63706,35.68439,0
            139.63698,35.68443,0
            139.63685,35.68452,0
            139.63676,35.68457,0
            139.63664,35.68463,0
            139.63662,35.68464,0
            139.63643,35.68473,0
            139.63625,35.68442,0
            139.63622,35.68435,0
            139.63615,35.68422,0
            139.63601,35.68395,0
            139.63591,35.68377,0
            139.63588,35.68372,0
            139.63587,35.68373,0
            139.63583,35.68368,0
            139.63583,35.68367,0
            139.63583,35.68364,0
            139.63571,35.68312,0
            139.6357,35.68313,0
            139.63569,35.68312,0
            139.63567,35.68305,0
            139.63539,35.6831,0
            139.63505,35.68317,0
            139.63505,35.68316,0
            139.63504,35.68316,0
            139.63496,35.68318,0
            139.63497,35.68318,0
            139.63477,35.68322,0
            139.63469,35.68324,0
            139.63463,35.68325,0
            139.63451,35.68326,0
            139.63445,35.68327,0
            139.6341,35.68332,0
            139.63409,35.68331,0
            139.63408,35.68332,0
            139.63404,35.68332,0
            139.63404,35.68334,0
            139.63396,35.68334,0
            139.63387,35.68335,0
            139.63383,35.68336,0
            139.63371,35.68337,0
            139.63368,35.68338,0
            139.63348,35.6834,0
            139.63342,35.68341,0
            139.63328,35.68343,0
            139.63318,35.68344,0
            139.63301,35.68347,0
            139.63295,35.68347,0
            139.63288,35.68348,0
            139.63274,35.68351,0
            139.63266,35.68351,0
            139.6326,35.68352,0
            139.63253,35.68353,0
            139.63239,35.68353,0
            139.63208,35.68355,0
            139.63202,35.68355,0
            139.63184,35.68356,0
            139.63177,35.68357,0
            139.63172,35.68357,0
            139.63164,35.68358,0
            139.63153,35.6836,0
            139.63149,35.6836,0
            139.63128,35.68363,0
            139.63099,35.68368,0
            139.63084,35.68371,0
            139.63079,35.68372,0
            139.63068,35.68374,0
            139.63063,35.68375,0
            139.63059,35.68375,0
            139.63052,35.68377,0
            139.63045,35.68378,0
            139.63032,35.68382,0
            139.63014,35.68387,0
            139.63008,35.68389,0
            139.63004,35.68389,0
            139.63,35.68379,0
            139.62998,35.68375,0
            139.6299,35.68354,0
            139.62988,35.6835,0
            139.62984,35.68339,0
            139.62973,35.68345,0
            139.6296,35.68351,0
            139.6296,35.68352,0
            139.62959,35.68352,0
            139.62955,35.68354,0
            139.62953,35.68355,0
            139.62949,35.68357,0
            139.62949,35.68354,0
            139.62946,35.68344,0
            139.62946,35.68342,0
            139.62939,35.68345,0
            139.62923,35.68354,0
            139.62902,35.68364,0
            139.62894,35.68368,0
            139.62866,35.68383,0
            139.62857,35.68354,0
            139.62856,35.68349,0
            139.6285,35.68328,0
            139.62848,35.68323,0
            139.62838,35.68289,0
            139.62832,35.6829,0
            139.62762,35.68305,0
            139.62757,35.68306,0
            139.62755,35.68306,0
            139.62734,35.68311,0
            139.62731,35.68312,0
            139.62732,35.68316,0
            139.62733,35.68324,0
            139.62736,35.6834,0
            139.62739,35.68357,0
            139.6274,35.68363,0
            139.62741,35.68365,0
            139.62732,35.68366,0
            139.62736,35.68388,0
            139.62732,35.68366,0
            139.62703,35.6837,0
            139.62697,35.68371,0
            139.62695,35.68371,0
            139.62686,35.68372,0
            139.62679,35.68372,0
            139.62675,35.68369,0
            139.62671,35.68363,0
            139.6267,35.68358,0
            139.6267,35.68354,0
            139.62669,35.68346,0
            139.62667,35.68342,0
            139.62664,35.68325,0
            139.62662,35.68325,0
            139.62648,35.68327,0
            139.62642,35.68328,0
            139.62623,35.6833,0
            139.62624,35.68342,0
            139.62625,35.68346,0
            139.62629,35.6835,0
            139.62639,35.68364,0
            139.62643,35.68368,0
            139.62649,35.68375,0
            139.62651,35.68379,0
            139.62651,35.68382,0
            139.62652,35.68385,0
            139.62656,35.68412,0
            139.62656,35.68417,0
            139.6266,35.68453,0
            139.6266,35.68456,0
            139.62721,35.68446,0
            139.62728,35.68445,0
            139.62731,35.68445,0
            139.62744,35.6844,0
            139.62747,35.68439,0
            139.62747,35.68437,0
            139.62754,35.68435,0
            139.62755,35.68435,0
            139.62756,35.68438,0
            139.62765,35.68434,0
            139.62766,35.68436,0
            139.62771,35.68445,0
            139.62773,35.68447,0
            139.62759,35.68455,0
            139.62756,35.68456,0
            139.62744,35.68463,0
            139.62741,35.68464,0
            139.6271,35.68479,0
            139.62711,35.68482,0
            139.62716,35.68497,0
            139.62718,35.68502,0
            139.62719,35.68506,0
            139.62723,35.68514,0
            139.62725,35.68517,0
            139.62733,35.68535,0
            139.62735,35.6854,0
            139.62741,35.68553,0
            139.62758,35.68593,0
            139.62766,35.68609,0
            139.62767,35.68613,0
            139.62786,35.68655,0
            139.62789,35.68659,0
            139.628,35.68685,0
            139.62803,35.68691,0
            139.62806,35.68699,0
            139.62808,35.68703,0
            139.62829,35.68695,0
            139.62831,35.68699,0
            139.62836,35.68714,0
            139.62846,35.68743,0
            139.62844,35.68748,0
            139.62847,35.68751,0
            139.62853,35.68754,0
            139.62848,35.68772,0
            139.62845,35.68781,0
            139.62844,35.68784,0
            139.62846,35.68787,0
            139.62847,35.68788,0
            139.62849,35.68789,0
            139.62852,35.6879,0
            139.62856,35.68791,0
            139.6287,35.68794,0
            139.62876,35.68797,0
            139.62893,35.68802,0
            139.62908,35.68808,0
            139.62912,35.6881,0
            139.62918,35.68812,0
            139.62931,35.68816,0
            139.62943,35.6882,0
            139.62959,35.68824,0
            139.62967,35.68826,0
            139.62969,35.68826,0
            139.62971,35.68827,0
            139.62974,35.68828,0
            139.62975,35.68833,0
            139.62977,35.68838,0
            139.62974,35.68856,0
            139.62973,35.68863,0
            139.62973,35.6887,0
            139.62972,35.68875,0
            139.6297,35.68907,0
            139.62969,35.68923,0
            139.62966,35.68922,0
            139.62966,35.68927,0
            139.62958,35.68941,0
            139.62958,35.68944,0
            139.62957,35.68947,0
            139.62957,35.68951,0
            139.62957,35.68954,0
            139.62956,35.68956,0
            139.62956,35.68961,0
            139.62956,35.68968,0
            139.62956,35.68973,0
            139.62956,35.68977,0
            139.62956,35.68982,0
            139.62956,35.68986,0
            139.62956,35.68991,0
            139.62957,35.68999,0
            139.62957,35.69003,0
            139.62957,35.6901,0
            139.62957,35.69015,0
            139.62962,35.69015,0
            139.62961,35.69017,0
            139.62962,35.69039,0
            139.62962,35.69054,0
            139.62963,35.69061,0
            139.62956,35.69061,0
            139.62937,35.69061,0
            139.62921,35.69061,0
            139.62912,35.69061,0
            139.62896,35.6906,0
            139.62896,35.69062,0
            139.62896,35.6907,0
            139.62896,35.69072,0
            139.62891,35.69072,0
            139.62885,35.69072,0
            139.62875,35.69071,0
            139.62871,35.69092,0
            139.62871,35.69094,0
            139.62868,35.69109,0
            139.62868,35.69112,0
            139.6287,35.69114,0
            139.62872,35.69119,0
            139.62883,35.69137,0
            139.62884,35.6915,0
            139.62881,35.69154,0
            139.6288,35.69155,0
            139.62878,35.6916,0
            139.6287,35.69164,0
            139.62868,35.69166,0
            139.6287,35.69168,0
            139.62872,35.69174,0
            139.62873,35.6918,0
            139.62874,35.69188,0
            139.62874,35.69199,0
            139.62875,35.69204,0
            139.62878,35.69213,0
            139.62878,35.69214,0
            139.62879,35.69216,0
            139.62884,35.69224,0
            139.62886,35.69226,0
            139.62887,35.69227,0
            139.6289,35.69231,0
            139.62891,35.69232,0
            139.62893,35.69232,0
            139.62894,35.69232,0
            139.62906,35.69237,0
            139.62917,35.6924,0
            139.62919,35.69241,0
            139.62923,35.69241,0
            139.62929,35.69242,0
            139.62931,35.69241,0
            139.62933,35.69241,0
            139.62949,35.69239,0
            139.62952,35.69238,0
            139.62956,35.69238,0
            139.62963,35.69239,0
            139.62965,35.6924,0
            139.62966,35.6924,0
            139.62969,35.6924,0
            139.62972,35.6924,0
            139.62977,35.69241,0
            139.62978,35.69241,0
            139.62979,35.69241,0
            139.6298,35.69242,0
            139.62981,35.69243,0
            139.62988,35.69254,0
            139.62995,35.69268,0
            139.62997,35.69269,0
            139.62999,35.69273,0
            139.63,35.69274,0
            139.63005,35.69278,0
            139.63006,35.69279,0
            139.63007,35.69281,0
            139.6301,35.69289,0
            139.63014,35.69293,0
            139.63022,35.69301,0
            139.63041,35.69324,0
            139.63044,35.69328,0
            139.63045,35.69335,0
            139.63047,35.69339,0
            139.63053,35.69346,0
            139.63056,35.69348,0
            139.6305,35.69349,0
            139.63043,35.69345,0
            139.63041,35.69343,0
            139.63038,35.6934,0
            139.63035,35.69335,0
            139.63029,35.69328,0
            139.63024,35.69323,0
            139.63018,35.69318,0
            139.63007,35.69309,0
            139.63001,35.69306,0
            139.62994,35.69302,0
            139.62988,35.69299,0
            139.62984,35.69297,0
            139.62979,35.69295,0
            139.62972,35.69292,0
            139.62968,35.6929,0
            139.62946,35.69283,0
            139.62943,35.69287,0
            139.62936,35.69303,0
            139.62933,35.69308,0
            139.62923,35.69326,0
            139.62921,35.69331,0
            139.62919,35.69334,0
            139.6291,35.69349,0
            139.62907,35.69353,0
            139.62905,35.69356,0
            139.62902,35.69361,0
            139.62901,35.69362,0
            139.62898,35.69365,0
            139.62897,35.69367,0
            139.62897,35.69368,0
            139.62895,35.69373,0
            139.62885,35.69371,0
            139.6288,35.69371,0
            139.62879,35.6937,0
            139.62878,35.6937,0
            139.62876,35.69369,0
            139.62868,35.69365,0
            139.62866,35.69364,0
            139.62865,35.69363,0
            139.62864,35.69361,0
            139.62863,35.69361,0
            139.62863,35.6936,0
            139.62861,35.6936,0
            139.62857,35.69363,0
            139.62849,35.69369,0
            139.62846,35.69373,0
            139.62833,35.69379,0
            139.62827,35.69381,0
            139.62824,35.69383,0
            139.62783,35.69401,0
            139.62785,35.69408,0
            139.62787,35.69415,0
            139.62789,35.69419,0
            139.62784,35.69421,0
            139.62785,35.69423,0
            139.62785,35.69425,0
            139.62787,35.69428,0
            139.62789,35.6943,0
            139.62796,35.69438,0
            139.62804,35.69447,0
          </coordinates>
        </LineString>
      </Placemark>
      <Placemark>
        <name>日本、〒168-0061 東京都杉並区大宮２丁目２３</name>
        <styleUrl>#icon-1899-DB4436-nodesc</styleUrl>
        <Point>
          <coordinates>
            139.6403374,35.6851962,0
          </coordinates>
        </Point>
      </Placemark>
      <Placemark>
        <name>ポイント 1</name>
        <styleUrl>#icon-1899-DB4436-nodesc</styleUrl>
        <Point>
          <coordinates>
            139.6273598,35.6838815,0
          </coordinates>
        </Point>
      </Placemark>
      <Placemark>
        <name>日本、〒167-0051 東京都杉並区荻窪１丁目５６−３ 杉並区立児童青少年センター</name>
        <styleUrl>#icon-1899-DB4436-nodesc</styleUrl>
        <Point>
          <coordinates>
            139.6280436,35.6944691,0
          </coordinates>
        </Point>
      </Placemark>
    </Folder>
    <Folder>
      <name>屋倉橋 から 日本、〒166-0016 東京都杉並区成田西３丁目６−９ へのルート</name>
      <Placemark>
        <name>屋倉橋 から 日本、〒166-0016 東京都杉並区成田西３丁目６−９ へのルート</name>
        <styleUrl>#line-1267FF-5000-nodesc</styleUrl>
        <LineString>
          <tessellate>1</tessellate>
          <coordinates>
            139.63055,35.69412,0
            139.63058,35.69409,0
            139.63062,35.69402,0
            139.63063,35.69398,0
            139.63064,35.69395,0
            139.63064,35.69393,0
            139.63064,35.69392,0
            139.63065,35.69389,0
            139.63063,35.69387,0
            139.63061,35.69384,0
            139.63059,35.6938,0
            139.63056,35.69374,0
            139.63054,35.69369,0
            139.63053,35.69365,0
            139.63051,35.69353,0
            139.6305,35.69349,0
            139.63056,35.69348,0
            139.63053,35.69346,0
            139.63047,35.69339,0
            139.63045,35.69335,0
            139.63044,35.69328,0
            139.63046,35.69324,0
            139.63048,35.69321,0
            139.63049,35.69316,0
            139.63047,35.69312,0
            139.63046,35.6931,0
            139.63044,35.69309,0
            139.63042,35.69307,0
            139.6304,35.69306,0
            139.63038,35.69305,0
            139.63032,35.69298,0
            139.63023,35.69288,0
            139.6302,35.69285,0
            139.63012,35.69271,0
            139.63009,35.69267,0
            139.62999,35.69247,0
            139.62992,35.69234,0
            139.6299,35.69231,0
            139.62987,35.69228,0
            139.62982,35.69225,0
            139.62973,35.69223,0
            139.62969,35.69224,0
            139.62965,35.69225,0
            139.62954,35.69229,0
            139.62956,35.69224,0
            139.62956,35.69207,0
            139.62956,35.69186,0
            139.62956,35.69183,0
            139.6295,35.69182,0
            139.62945,35.69181,0
            139.62941,35.69177,0
            139.62942,35.69171,0
            139.62938,35.69154,0
            139.62915,35.69128,0
            139.62898,35.69108,0
            139.62894,35.69104,0
            139.62889,35.69098,0
            139.62888,35.69097,0
            139.62888,35.69096,0
            139.62888,35.69095,0
            139.62888,35.69092,0
            139.62888,35.69088,0
            139.62889,35.69072,0
            139.62891,35.69072,0
            139.62892,35.6906,0
            139.62912,35.69061,0
            139.62921,35.69061,0
            139.62937,35.69061,0
            139.62957,35.69061,0
            139.62957,35.69057,0
            139.62958,35.69055,0
            139.62958,35.69043,0
            139.62958,35.69038,0
            139.62957,35.69019,0
            139.62957,35.69016,0
            139.62956,35.6901,0
            139.62956,35.69003,0
            139.62957,35.68999,0
            139.62956,35.68988,0
            139.62956,35.68982,0
            139.62956,35.68977,0
            139.62956,35.68973,0
            139.62956,35.68966,0
            139.62956,35.68964,0
            139.62956,35.6896,0
            139.62956,35.68956,0
            139.62957,35.68953,0
            139.62957,35.68951,0
            139.62957,35.68948,0
            139.62958,35.68944,0
            139.62967,35.68927,0
            139.62967,35.68922,0
            139.62969,35.68923,0
            139.6297,35.68907,0
            139.62972,35.68875,0
            139.62973,35.6887,0
            139.62973,35.68863,0
            139.62974,35.68856,0
            139.62977,35.68838,0
            139.62975,35.68833,0
            139.62974,35.68828,0
            139.62977,35.68825,0
            139.62973,35.68824,0
            139.6297,35.68823,0
            139.62968,35.68823,0
            139.6296,35.68821,0
            139.62944,35.68817,0
            139.62932,35.68813,0
            139.62919,35.68809,0
            139.62914,35.68807,0
            139.62909,35.68805,0
            139.62894,35.688,0
            139.62878,35.68794,0
            139.62871,35.68792,0
            139.62857,35.68788,0
            139.62853,35.68787,0
            139.62851,35.68786,0
            139.62849,35.68785,0
            139.62848,35.68784,0
            139.62849,35.68783,0
            139.62849,35.6878,0
            139.62851,35.68773,0
            139.62856,35.68754,0
            139.62858,35.6875,0
            139.62854,35.68749,0
            139.62851,35.68747,0
            139.62848,35.68745,0
            139.62846,35.68744,0
            139.62836,35.68714,0
            139.62831,35.68698,0
            139.62809,35.68707,0
            139.62807,35.68703,0
            139.62806,35.68699,0
            139.62803,35.68692,0
            139.628,35.68685,0
            139.62789,35.68659,0
            139.62787,35.68655,0
            139.62768,35.68612,0
            139.62766,35.68609,0
            139.62759,35.68593,0
            139.62741,35.68553,0
            139.62735,35.6854,0
            139.62733,35.68535,0
            139.62722,35.68512,0
            139.6272,35.68506,0
            139.62718,35.68502,0
            139.62716,35.68497,0
            139.62711,35.68482,0
            139.6271,35.68479,0
            139.62741,35.68464,0
            139.62743,35.6846,0
            139.62759,35.68455,0
            139.62764,35.68451,0
            139.62755,35.68438,0
            139.62748,35.68439,0
            139.62744,35.6844,0
            139.6273,35.68445,0
            139.62721,35.68446,0
            139.62661,35.68456,0
            139.6266,35.6845,0
            139.62656,35.68417,0
            139.62656,35.68412,0
            139.62653,35.68386,0
            139.62652,35.68382,0
            139.62651,35.68379,0
            139.62649,35.68375,0
            139.62641,35.68366,0
            139.62629,35.6835,0
            139.62626,35.68347,0
            139.62626,35.68346,0
            139.62625,35.68345,0
            139.62624,35.68342,0
            139.62624,35.68331,0
            139.62634,35.6833,0
            139.62642,35.68329,0
            139.62662,35.68327,0
            139.62665,35.68326,0
            139.62668,35.68344,0
            139.6267,35.68354,0
            139.6267,35.68358,0
            139.62671,35.68363,0
            139.62675,35.68369,0
            139.62678,35.68371,0
            139.62681,35.68372,0
            139.62683,35.68372,0
            139.62688,35.68372,0
            139.62692,35.68372,0
            139.62697,35.68371,0
            139.62733,35.68366,0
            139.62737,35.68388,0
            139.62733,35.68366,0
            139.62697,35.68371,0
            139.62692,35.68372,0
            139.62688,35.68372,0
            139.62682,35.68372,0
            139.62678,35.68371,0
            139.62677,35.6837,0
            139.62675,35.68368,0
            139.62671,35.68363,0
            139.6267,35.68358,0
            139.6267,35.68354,0
            139.62668,35.68344,0
            139.62665,35.68326,0
            139.62662,35.68327,0
            139.62642,35.68329,0
            139.62634,35.6833,0
            139.62624,35.68331,0
            139.62624,35.68342,0
            139.62625,35.68345,0
            139.62626,35.68346,0
            139.62626,35.68347,0
            139.62629,35.6835,0
            139.62641,35.68366,0
            139.62649,35.68375,0
            139.62651,35.68379,0
            139.62652,35.68382,0
            139.62653,35.68386,0
            139.62656,35.68412,0
            139.62656,35.68417,0
            139.6266,35.6845,0
            139.62661,35.68456,0
            139.62721,35.68446,0
            139.6273,35.68445,0
            139.62744,35.6844,0
            139.62748,35.68439,0
            139.62755,35.68438,0
            139.62764,35.68451,0
            139.62759,35.68455,0
            139.62743,35.6846,0
            139.62741,35.68464,0
            139.6271,35.68479,0
            139.62711,35.68482,0
            139.62716,35.68497,0
            139.62718,35.68502,0
            139.6272,35.68506,0
            139.62722,35.68512,0
            139.62733,35.68535,0
            139.62735,35.6854,0
            139.62741,35.68553,0
            139.62759,35.68593,0
            139.62766,35.68609,0
            139.62768,35.68612,0
            139.62787,35.68655,0
            139.62789,35.68659,0
            139.628,35.68685,0
            139.62803,35.68692,0
            139.62806,35.68699,0
            139.62807,35.68703,0
            139.62827,35.68695,0
            139.62831,35.68698,0
            139.62836,35.68714,0
            139.62846,35.68744,0
            139.62848,35.68745,0
            139.62851,35.68747,0
            139.62854,35.68749,0
            139.62858,35.6875,0
            139.62856,35.68754,0
            139.62851,35.68773,0
            139.62849,35.6878,0
            139.62849,35.68783,0
            139.62848,35.68784,0
            139.62849,35.68786,0
            139.62853,35.68787,0
            139.62857,35.68788,0
            139.62871,35.68792,0
            139.62878,35.68794,0
            139.62894,35.688,0
            139.62909,35.68805,0
            139.62914,35.68807,0
            139.62919,35.68809,0
            139.62932,35.68813,0
            139.62944,35.68817,0
            139.6296,35.68821,0
            139.62968,35.68823,0
            139.6297,35.68823,0
            139.62972,35.68823,0
            139.62974,35.68824,0
            139.62977,35.68825,0
            139.6298,35.68827,0
            139.62989,35.68827,0
            139.62991,35.68828,0
            139.63001,35.68828,0
            139.63009,35.68829,0
            139.63021,35.6883,0
            139.63021,35.68832,0
            139.63028,35.68831,0
            139.63054,35.68833,0
            139.63072,35.68836,0
            139.63075,35.68836,0
            139.63076,35.6884,0
            139.6308,35.68855,0
            139.63081,35.68858,0
            139.63084,35.68867,0
            139.63084,35.68869,0
            139.63083,35.68874,0
            139.63084,35.68877,0
            139.63086,35.68883,0
            139.63087,35.68885,0
            139.6309,35.68896,0
            139.63093,35.68907,0
            139.63093,35.68908,0
            139.63095,35.68916,0
            139.63096,35.68917,0
            139.63096,35.68927,0
            139.63097,35.68931,0
            139.631,35.68937,0
            139.63101,35.6894,0
            139.63104,35.68945,0
            139.63107,35.68948,0
            139.63109,35.6895,0
            139.6311,35.68952,0
            139.63113,35.68957,0
            139.63114,35.68958,0
            139.63114,35.68962,0
            139.63115,35.68966,0
            139.63115,35.6897,0
            139.63116,35.68976,0
            139.63117,35.68979,0
            139.63119,35.68985,0
            139.63117,35.68992,0
            139.63114,35.69002,0
            139.63118,35.69012,0
            139.63117,35.69014,0
            139.6312,35.69017,0
            139.63122,35.6902,0
            139.63126,35.69024,0
            139.63128,35.69025,0
            139.63129,35.69026,0
            139.63135,35.6903,0
            139.63145,35.69037,0
            139.63147,35.69038,0
            139.63148,35.69039,0
            139.63152,35.69042,0
            139.63155,35.69046,0
            139.6316,35.69052,0
            139.6316,35.69053,0
            139.63165,35.6906,0
            139.63168,35.69065,0
            139.6317,35.69068,0
            139.63172,35.6907,0
            139.63181,35.69084,0
            139.63183,35.69088,0
            139.63183,35.6909,0
            139.63182,35.69091,0
            139.63182,35.69096,0
            139.63185,35.69101,0
            139.63187,35.69104,0
            139.63203,35.69128,0
            139.63206,35.69133,0
            139.63199,35.69142,0
            139.63212,35.69148,0
            139.63219,35.69151,0
            139.6323,35.69156,0
            139.6323,35.69157,0
            139.63232,35.69163,0
            139.63235,35.69169,0
            139.63238,35.69174,0
            139.63242,35.6918,0
            139.63243,35.69182,0
            139.63244,35.6919,0
            139.63244,35.69194,0
            139.63244,35.69196,0
            139.63244,35.69199,0
            139.63244,35.692,0
            139.63245,35.69207,0
            139.63245,35.69217,0
            139.63247,35.69225,0
            139.63252,35.6924,0
            139.63256,35.69253,0
            139.63256,35.69255,0
            139.6326,35.69265,0
            139.63261,35.69268,0
            139.63262,35.6927,0
            139.63282,35.69296,0
            139.63288,35.69304,0
            139.63289,35.69306,0
            139.6329,35.69308,0
            139.63294,35.69316,0
            139.63294,35.69317,0
            139.63296,35.69321,0
            139.63296,35.69323,0
            139.63297,35.69332,0
            139.63297,35.69342,0
            139.63297,35.69348,0
            139.63296,35.69357,0
            139.63296,35.69365,0
            139.63297,35.69371,0
            139.63302,35.69388,0
            139.63304,35.69397,0
            139.63302,35.69401,0
            139.63312,35.69405,0
            139.63313,35.69407,0
            139.63313,35.6941,0
            139.63313,35.69413,0
            139.63312,35.69415,0
            139.63312,35.69417,0
            139.6331,35.69423,0
            139.63309,35.69426,0
            139.63306,35.6943,0
            139.63301,35.69436,0
            139.633,35.69437,0
            139.63297,35.6944,0
          </coordinates>
        </LineString>
      </Placemark>
      <Placemark>
        <name>屋倉橋</name>
        <styleUrl>#icon-1899-DB4436-nodesc</styleUrl>
        <Point>
          <coordinates>
            139.6305542,35.6941247,0
          </coordinates>
        </Point>
      </Placemark>
      <Placemark>
        <name>ポイント 1</name>
        <styleUrl>#icon-1899-DB4436-nodesc</styleUrl>
        <Point>
          <coordinates>
            139.6273664,35.6838807,0
          </coordinates>
        </Point>
      </Placemark>
      <Placemark>
        <name>日本、〒166-0016 東京都杉並区成田西３丁目６−９</name>
        <styleUrl>#icon-1899-DB4436-nodesc</styleUrl>
        <Point>
          <coordinates>
            139.6329714,35.6944034,0
          </coordinates>
        </Point>
      </Placemark>
    </Folder>
    <Folder>
      <name>無題のレイヤ</name>
    </Folder>
    <Folder>
      <name>日本、〒167-0051 東京都杉並区荻窪１丁目５０−４０ から 日本、〒168-0071 東京都杉並区高井戸西２丁目１６−３８ へのルート</name>
      <Placemark>
        <name>日本、〒167-0051 東京都杉並区荻窪１丁目５０−４０ から 日本、〒168-0071 東京都杉並区高井戸西２丁目１６−３８ へのルート</name>
        <styleUrl>#line-1267FF-5000-nodesc</styleUrl>
        <LineString>
          <tessellate>1</tessellate>
          <coordinates>
            139.62541,35.69378,0
            139.62541,35.69374,0
            139.6254,35.6937,0
            139.62538,35.69358,0
            139.62538,35.69354,0
            139.62536,35.69348,0
            139.62534,35.69342,0
            139.62533,35.69339,0
            139.62533,35.69336,0
            139.62533,35.69333,0
            139.62534,35.69328,0
            139.62539,35.69313,0
            139.6254,35.69311,0
            139.62543,35.69305,0
            139.62546,35.693,0
            139.62549,35.69296,0
            139.62554,35.69289,0
            139.62556,35.69282,0
            139.62566,35.69266,0
            139.62566,35.69262,0
            139.62571,35.69262,0
            139.62575,35.69262,0
            139.62575,35.69252,0
            139.62592,35.69236,0
            139.62594,35.69234,0
            139.62596,35.69232,0
            139.62599,35.69229,0
            139.62605,35.6923,0
            139.62608,35.69231,0
            139.62611,35.69231,0
            139.62618,35.69232,0
            139.62623,35.69232,0
            139.62626,35.69232,0
            139.62627,35.69232,0
            139.6263,35.69232,0
            139.62651,35.69238,0
            139.62652,35.69238,0
            139.62679,35.69246,0
            139.62685,35.69247,0
            139.62693,35.69248,0
            139.62698,35.69248,0
            139.62703,35.69247,0
            139.62709,35.69244,0
            139.62714,35.69242,0
            139.62735,35.69227,0
            139.62747,35.69219,0
            139.62754,35.69215,0
            139.62762,35.69209,0
            139.62771,35.69203,0
            139.62773,35.69203,0
            139.62775,35.69202,0
            139.62776,35.69202,0
            139.62777,35.692,0
            139.62777,35.69199,0
            139.62778,35.69198,0
            139.62778,35.69196,0
            139.62777,35.69192,0
            139.62776,35.69186,0
            139.62776,35.69169,0
            139.62776,35.69157,0
            139.62774,35.69149,0
            139.62776,35.69145,0
            139.62775,35.69132,0
            139.62769,35.69132,0
            139.6277,35.69144,0
            139.62767,35.69144,0
            139.62756,35.69141,0
            139.62745,35.69138,0
            139.62737,35.69136,0
            139.62733,35.69135,0
            139.6273,35.69133,0
            139.62726,35.69131,0
            139.62725,35.6913,0
            139.62722,35.69129,0
            139.62719,35.69128,0
            139.62705,35.69123,0
            139.62699,35.69119,0
            139.62689,35.69112,0
            139.62684,35.69108,0
            139.62675,35.69102,0
            139.62671,35.69099,0
            139.62668,35.69097,0
            139.62662,35.69094,0
            139.6266,35.69093,0
            139.62658,35.69093,0
            139.62657,35.69093,0
            139.62654,35.69093,0
            139.62649,35.69094,0
            139.62641,35.69095,0
            139.62633,35.69096,0
            139.62625,35.69097,0
            139.62617,35.69098,0
            139.62616,35.6909,0
            139.62616,35.69083,0
            139.62616,35.69079,0
            139.62616,35.69077,0
            139.6262,35.69077,0
            139.6262,35.69068,0
            139.62615,35.69068,0
            139.62613,35.69067,0
            139.6261,35.69055,0
            139.62605,35.69037,0
            139.62607,35.69036,0
            139.62602,35.69026,0
            139.62599,35.69019,0
            139.62595,35.69007,0
            139.62592,35.6899,0
            139.62589,35.68989,0
            139.6259,35.68988,0
            139.6259,35.68987,0
            139.6259,35.68985,0
            139.62589,35.6898,0
            139.62589,35.68979,0
            139.62589,35.68978,0
            139.62589,35.68977,0
            139.62591,35.68973,0
            139.62592,35.6897,0
            139.62594,35.68961,0
            139.62595,35.68957,0
            139.62596,35.68955,0
            139.62596,35.68952,0
            139.62597,35.68951,0
            139.62598,35.68947,0
            139.62599,35.68945,0
            139.62596,35.68944,0
            139.62588,35.68942,0
            139.62588,35.6894,0
            139.62601,35.68906,0
            139.6261,35.6888,0
            139.62572,35.6887,0
            139.62574,35.68866,0
            139.62579,35.68854,0
            139.62585,35.68839,0
            139.6259,35.68827,0
            139.62591,35.68823,0
            139.62592,35.6882,0
            139.62593,35.68817,0
            139.62594,35.68807,0
            139.62597,35.68786,0
            139.62597,35.68784,0
            139.62597,35.68782,0
            139.62626,35.6877,0
            139.62633,35.68768,0
            139.62639,35.68766,0
            139.62638,35.6876,0
            139.62607,35.68707,0
            139.62663,35.68684,0
            139.6266,35.68678,0
            139.62648,35.68658,0
            139.62645,35.68653,0
            139.62631,35.68629,0
            139.62628,35.68625,0
            139.62613,35.68599,0
            139.6261,35.68595,0
            139.62599,35.68576,0
            139.62598,35.68572,0
            139.62589,35.68558,0
            139.62585,35.6855,0
            139.62576,35.68533,0
            139.62575,35.68531,0
            139.6258,35.68529,0
            139.62586,35.68526,0
            139.62621,35.68513,0
            139.62625,35.68512,0
            139.62643,35.68505,0
            139.62658,35.685,0
            139.62683,35.6849,0
            139.62691,35.68487,0
            139.62697,35.68484,0
            139.62706,35.68481,0
            139.6271,35.68479,0
            139.62741,35.68464,0
            139.62743,35.6846,0
            139.62759,35.68455,0
            139.62764,35.68451,0
            139.62755,35.68438,0
            139.62748,35.68439,0
            139.62744,35.6844,0
            139.6273,35.68445,0
            139.62721,35.68446,0
            139.62661,35.68456,0
            139.6266,35.6845,0
            139.62656,35.68417,0
            139.62656,35.68412,0
            139.62653,35.68386,0
            139.62652,35.68382,0
            139.62651,35.68379,0
            139.62649,35.68375,0
            139.62641,35.68366,0
            139.62629,35.6835,0
            139.62626,35.68347,0
            139.62626,35.68346,0
            139.62625,35.68345,0
            139.62624,35.68342,0
            139.62624,35.68331,0
            139.62634,35.6833,0
            139.62642,35.68329,0
            139.62662,35.68327,0
            139.62665,35.68326,0
            139.62668,35.68344,0
            139.6267,35.68354,0
            139.6267,35.68358,0
            139.62671,35.68363,0
            139.62675,35.68369,0
            139.62678,35.68371,0
            139.62681,35.68372,0
            139.62683,35.68372,0
            139.62688,35.68372,0
            139.62692,35.68372,0
            139.62697,35.68371,0
            139.62733,35.68366,0
            139.62737,35.68388,0
            139.62733,35.68366,0
            139.62697,35.68371,0
            139.62692,35.68372,0
            139.62688,35.68372,0
            139.62682,35.68372,0
            139.62678,35.68371,0
            139.62677,35.6837,0
            139.62675,35.68368,0
            139.62671,35.68363,0
            139.6267,35.68358,0
            139.6267,35.68354,0
            139.62668,35.68344,0
            139.62665,35.68326,0
            139.62662,35.68327,0
            139.62642,35.68329,0
            139.62634,35.6833,0
            139.62624,35.68331,0
            139.62624,35.68342,0
            139.62625,35.68345,0
            139.62626,35.68346,0
            139.62626,35.68347,0
            139.62629,35.6835,0
            139.62641,35.68366,0
            139.62649,35.68375,0
            139.62651,35.68379,0
            139.62652,35.68382,0
            139.62647,35.68383,0
            139.62614,35.68389,0
            139.62608,35.68389,0
            139.62556,35.68399,0
            139.62551,35.684,0
            139.6254,35.68401,0
            139.62535,35.68399,0
            139.62537,35.68396,0
            139.62532,35.68396,0
            139.62524,35.68396,0
            139.62522,35.68396,0
            139.62519,35.68397,0
            139.62512,35.68398,0
            139.62509,35.68399,0
            139.62472,35.68407,0
            139.62467,35.68408,0
            139.62463,35.68407,0
            139.62461,35.68406,0
            139.6246,35.68405,0
            139.62459,35.68404,0
            139.62458,35.68401,0
            139.62457,35.68398,0
            139.62445,35.68344,0
            139.62444,35.68338,0
            139.62444,35.68336,0
            139.62441,35.68325,0
            139.6244,35.68322,0
            139.62438,35.68317,0
            139.62433,35.68306,0
            139.62431,35.68307,0
            139.62421,35.68311,0
            139.6241,35.68315,0
            139.62405,35.68317,0
            139.62398,35.68319,0
            139.62395,35.68321,0
            139.62373,35.68328,0
            139.62369,35.6833,0
            139.62313,35.6835,0
            139.62307,35.68352,0
            139.62303,35.68353,0
            139.62303,35.68357,0
            139.62297,35.68355,0
            139.62246,35.68353,0
            139.62239,35.68354,0
            139.62226,35.68345,0
            139.62209,35.68332,0
            139.62206,35.68329,0
            139.62187,35.68315,0
            139.62183,35.68312,0
            139.6218,35.68316,0
            139.62176,35.68321,0
            139.62174,35.68324,0
            139.62171,35.68327,0
            139.62168,35.68331,0
            139.62164,35.68335,0
            139.62159,35.6834,0
            139.62156,35.68344,0
            139.62146,35.68352,0
            139.62142,35.68355,0
            139.62132,35.68365,0
            139.62124,35.68371,0
            139.6212,35.68376,0
            139.62109,35.68385,0
            139.62103,35.68391,0
            139.62095,35.68398,0
            139.62091,35.68401,0
            139.62089,35.68402,0
            139.62089,35.68406,0
            139.62089,35.68409,0
            139.62088,35.68412,0
            139.62087,35.68415,0
            139.62083,35.68419,0
            139.62081,35.68422,0
            139.62076,35.68426,0
            139.62066,35.68435,0
            139.6206,35.68438,0
            139.62059,35.68441,0
            139.62052,35.68446,0
            139.62048,35.68449,0
            139.62046,35.6845,0
            139.62022,35.68464,0
            139.62015,35.68468,0
            139.61979,35.68488,0
            139.61974,35.68484,0
            139.6197,35.68487,0
            139.61962,35.68492,0
            139.61958,35.68494,0
            139.61952,35.68498,0
            139.61943,35.68502,0
            139.61937,35.68505,0
            139.61931,35.68508,0
            139.61927,35.6851,0
            139.61921,35.68513,0
            139.61919,35.68514,0
            139.61912,35.68517,0
            139.61905,35.68519,0
            139.61895,35.68523,0
            139.61885,35.68526,0
            139.61872,35.6853,0
            139.61859,35.68534,0
            139.61852,35.68536,0
            139.61845,35.68537,0
            139.6183,35.6854,0
            139.61826,35.68541,0
            139.61812,35.68544,0
            139.61805,35.68545,0
            139.61798,35.68546,0
            139.61789,35.68548,0
            139.61781,35.68549,0
            139.61775,35.68549,0
            139.61774,35.68549,0
            139.61766,35.6855,0
            139.61752,35.6855,0
            139.61737,35.68551,0
            139.61731,35.68551,0
            139.61724,35.68551,0
            139.61723,35.68551,0
            139.61716,35.6855,0
            139.61713,35.6855,0
            139.61702,35.68549,0
            139.61698,35.68548,0
            139.61694,35.68548,0
            139.6169,35.68547,0
            139.61684,35.68546,0
            139.61681,35.68545,0
            139.61668,35.68542,0
            139.61658,35.68539,0
            139.61635,35.68534,0
            139.61629,35.68533,0
            139.61625,35.68532,0
            139.61618,35.68531,0
            139.61613,35.6853,0
            139.61609,35.6853,0
            139.61602,35.68529,0
            139.61598,35.68529,0
            139.61591,35.68529,0
            139.61582,35.68528,0
            139.61582,35.68526,0
            139.61582,35.68525,0
            139.61583,35.68525,0
            139.61584,35.68526,0
            139.61586,35.68526,0
            139.61587,35.68526,0
            139.61589,35.68526,0
            139.6159,35.68527,0
            139.6159,35.68528,0
            139.61586,35.68528,0
            139.61584,35.68528,0
            139.61576,35.68527,0
            139.61557,35.68525,0
            139.61557,35.68526,0
            139.61543,35.68525,0
            139.61522,35.68526,0
            139.61517,35.68526,0
            139.61503,35.68528,0
            139.61483,35.6853,0
            139.61478,35.68531,0
            139.61458,35.68534,0
            139.61452,35.68534,0
            139.61431,35.68536,0
            139.61424,35.68537,0
            139.61417,35.68537,0
            139.61399,35.6854,0
            139.61395,35.6854,0
            139.61377,35.68543,0
            139.61375,35.68544,0
            139.61333,35.68551,0
            139.61324,35.6855,0
            139.61276,35.68552,0
            139.61267,35.68554,0
            139.61257,35.68554,0
            139.61254,35.68554,0
            139.6125,35.68549,0
            139.61235,35.68531,0
          </coordinates>
        </LineString>
      </Placemark>
      <Placemark>
        <name>日本、〒167-0051 東京都杉並区荻窪１丁目５０−４０</name>
        <styleUrl>#icon-1899-DB4436-nodesc</styleUrl>
        <Point>
          <coordinates>
            139.6254114,35.6937754,0
          </coordinates>
        </Point>
      </Placemark>
      <Placemark>
        <name>ポイント 1</name>
        <styleUrl>#icon-1899-DB4436-nodesc</styleUrl>
        <Point>
          <coordinates>
            139.6273664,35.6838807,0
          </coordinates>
        </Point>
      </Placemark>
      <Placemark>
        <name>日本、〒168-0071 東京都杉並区高井戸西２丁目１６−３８</name>
        <styleUrl>#icon-1899-DB4436-nodesc</styleUrl>
        <Point>
          <coordinates>
            139.6123489,35.685314,0
          </coordinates>
        </Point>
      </Placemark>
    </Folder>
    <Folder>
      <name>日本、〒167-0051 東京都杉並区荻窪１丁目３７−１９ から 三本松の丘 へのルート</name>
      <Placemark>
        <name>日本、〒167-0051 東京都杉並区荻窪１丁目３７−１９ から 三本松の丘 へのルート</name>
        <styleUrl>#line-1267FF-5000-nodesc</styleUrl>
        <LineString>
          <tessellate>1</tessellate>
          <coordinates>
            139.62131,35.69483,0
            139.62139,35.69463,0
            139.62141,35.69457,0
            139.62141,35.69455,0
            139.62143,35.6945,0
            139.62154,35.69426,0
            139.62155,35.69423,0
            139.62156,35.69421,0
            139.62154,35.69418,0
            139.62155,35.69414,0
            139.62156,35.69411,0
            139.62158,35.694,0
            139.6216,35.69395,0
            139.62169,35.69365,0
            139.62178,35.69352,0
            139.62181,35.69347,0
            139.62187,35.69339,0
            139.6219,35.69334,0
            139.622,35.69319,0
            139.62207,35.69306,0
            139.62209,35.69301,0
            139.62212,35.69295,0
            139.62232,35.69255,0
            139.62235,35.69254,0
            139.62239,35.69254,0
            139.62245,35.69254,0
            139.62257,35.69256,0
            139.62257,35.69253,0
            139.62262,35.69244,0
            139.62264,35.69239,0
            139.62269,35.69232,0
            139.62276,35.69221,0
            139.62278,35.69218,0
            139.6228,35.69214,0
            139.62282,35.69211,0
            139.62283,35.6921,0
            139.62285,35.69209,0
            139.62287,35.69207,0
            139.62291,35.69204,0
            139.62309,35.6919,0
            139.62314,35.69186,0
            139.62318,35.69182,0
            139.62337,35.69163,0
            139.62344,35.69156,0
            139.62346,35.69153,0
            139.62346,35.69151,0
            139.62347,35.69149,0
            139.62349,35.69134,0
            139.62349,35.69132,0
            139.6235,35.69131,0
            139.62351,35.69129,0
            139.62352,35.69127,0
            139.62353,35.69126,0
            139.62355,35.69125,0
            139.62356,35.69124,0
            139.62365,35.6912,0
            139.62374,35.69118,0
            139.62392,35.69113,0
            139.62395,35.69113,0
            139.62394,35.69105,0
            139.62394,35.69101,0
            139.62394,35.69095,0
            139.62393,35.6909,0
            139.62392,35.69081,0
            139.62392,35.69076,0
            139.62392,35.69066,0
            139.62393,35.69054,0
            139.62418,35.69056,0
            139.6242,35.69052,0
            139.62432,35.69034,0
            139.62443,35.69018,0
            139.62446,35.69012,0
            139.6245,35.69007,0
            139.62454,35.69002,0
            139.62457,35.68998,0
            139.62463,35.68992,0
            139.62476,35.68977,0
            139.62486,35.68967,0
            139.62496,35.68956,0
            139.62499,35.68953,0
            139.62519,35.68933,0
            139.62525,35.68926,0
            139.62527,35.68924,0
            139.62543,35.68905,0
            139.62555,35.6889,0
            139.62571,35.6887,0
            139.62574,35.68866,0
            139.62579,35.68854,0
            139.62585,35.68839,0
            139.6259,35.68827,0
            139.62591,35.68823,0
            139.62592,35.6882,0
            139.62593,35.68817,0
            139.62594,35.68807,0
            139.62597,35.68786,0
            139.62597,35.68784,0
            139.62597,35.68782,0
            139.62626,35.6877,0
            139.62633,35.68768,0
            139.62639,35.68766,0
            139.62638,35.6876,0
            139.62607,35.68707,0
            139.62663,35.68684,0
            139.6266,35.68678,0
            139.62648,35.68658,0
            139.62645,35.68653,0
            139.62631,35.68629,0
            139.62628,35.68625,0
            139.62613,35.68599,0
            139.6261,35.68595,0
            139.62599,35.68576,0
            139.62598,35.68572,0
            139.62589,35.68558,0
            139.62585,35.6855,0
            139.62576,35.68533,0
            139.62575,35.68531,0
            139.6258,35.68529,0
            139.62586,35.68526,0
            139.62621,35.68513,0
            139.62625,35.68512,0
            139.62643,35.68505,0
            139.62658,35.685,0
            139.62683,35.6849,0
            139.62691,35.68487,0
            139.62697,35.68484,0
            139.62706,35.68481,0
            139.6271,35.68479,0
            139.62741,35.68464,0
            139.62743,35.6846,0
            139.62759,35.68455,0
            139.62764,35.68451,0
            139.62755,35.68438,0
            139.62748,35.68439,0
            139.62744,35.6844,0
            139.6273,35.68445,0
            139.62721,35.68446,0
            139.62661,35.68456,0
            139.6266,35.6845,0
            139.62656,35.68417,0
            139.62656,35.68412,0
            139.62653,35.68386,0
            139.62652,35.68382,0
            139.62651,35.68379,0
            139.62649,35.68375,0
            139.62641,35.68366,0
            139.62629,35.6835,0
            139.62626,35.68347,0
            139.62626,35.68346,0
            139.62625,35.68345,0
            139.62624,35.68342,0
            139.62624,35.68331,0
            139.62634,35.6833,0
            139.62642,35.68329,0
            139.62662,35.68327,0
            139.62665,35.68326,0
            139.62668,35.68344,0
            139.6267,35.68354,0
            139.6267,35.68358,0
            139.62671,35.68363,0
            139.62675,35.68369,0
            139.62678,35.68371,0
            139.62681,35.68372,0
            139.62683,35.68372,0
            139.62688,35.68372,0
            139.62692,35.68372,0
            139.62697,35.68371,0
            139.62733,35.68366,0
            139.62737,35.68388,0
            139.62733,35.68366,0
            139.62743,35.68365,0
            139.62741,35.68363,0
            139.6274,35.68356,0
            139.62737,35.6834,0
            139.62732,35.68316,0
            139.62731,35.68313,0
            139.62735,35.68312,0
            139.62757,35.68308,0
            139.62761,35.68305,0
            139.62831,35.6829,0
            139.6284,35.68288,0
            139.62849,35.68322,0
            139.62851,35.68328,0
            139.62857,35.68348,0
            139.62859,35.68354,0
            139.62867,35.68382,0
            139.62894,35.68368,0
            139.62902,35.68364,0
            139.62923,35.68354,0
            139.62939,35.68345,0
            139.6295,35.68339,0
            139.6296,35.68337,0
            139.62961,35.68351,0
            139.62973,35.68345,0
            139.62985,35.68339,0
            139.62999,35.68376,0
            139.62999,35.68377,0
            139.63004,35.68389,0
            139.63009,35.68388,0
            139.63017,35.68386,0
            139.63032,35.68381,0
            139.63045,35.68378,0
            139.63053,35.68376,0
            139.63057,35.68375,0
            139.63068,35.68374,0
            139.63079,35.68372,0
            139.63084,35.68371,0
            139.63098,35.68368,0
            139.63128,35.68363,0
            139.6315,35.6836,0
            139.63154,35.68361,0
            139.63164,35.6836,0
            139.63172,35.68359,0
            139.63178,35.68358,0
            139.63188,35.68355,0
            139.63202,35.68355,0
            139.63208,35.68355,0
            139.63234,35.68353,0
            139.63243,35.68353,0
            139.63253,35.68353,0
            139.6326,35.68352,0
            139.63266,35.68351,0
            139.63274,35.68351,0
            139.63289,35.68348,0
            139.63296,35.68348,0
            139.63303,35.68346,0
            139.63311,35.68345,0
            139.63323,35.68344,0
            139.63342,35.68341,0
            139.63347,35.6834,0
            139.63368,35.68338,0
            139.63371,35.68337,0
            139.63383,35.68336,0
            139.63387,35.68335,0
            139.63396,35.68333,0
            139.63404,35.68334,0
            139.6341,35.68332,0
            139.63429,35.6833,0
            139.6345,35.68326,0
            139.63453,35.68326,0
            139.63459,35.68325,0
            139.63473,35.68322,0
            139.63499,35.68318,0
            139.63502,35.68319,0
            139.63503,35.68324,0
            139.63509,35.68339,0
            139.63518,35.68358,0
            139.63533,35.68391,0
            139.63534,35.68398,0
            139.63536,35.684,0
            139.63546,35.68418,0
            139.63556,35.68434,0
            139.63573,35.68464,0
            139.6358,35.68478,0
            139.63581,35.6848,0
            139.63585,35.68487,0
            139.63586,35.68489,0
            139.63586,35.6849,0
            139.63588,35.68492,0
            139.6359,35.68495,0
            139.63593,35.685,0
            139.63609,35.68494,0
            139.6362,35.6849,0
            139.63638,35.68499,0
            139.63651,35.68506,0
            139.63654,35.68508,0
            139.63657,35.6851,0
            139.63659,35.68511,0
            139.63662,35.68514,0
            139.63671,35.68523,0
            139.63672,35.68524,0
            139.63678,35.6853,0
            139.63681,35.68533,0
            139.6369,35.68543,0
            139.63695,35.68548,0
            139.63698,35.6855,0
            139.63702,35.68552,0
            139.63706,35.68553,0
            139.63707,35.68553,0
            139.6371,35.68553,0
            139.63715,35.68553,0
            139.63729,35.68549,0
            139.6373,35.68549,0
            139.63741,35.68547,0
            139.63746,35.68546,0
            139.63751,35.68546,0
            139.63753,35.68546,0
            139.63757,35.68547,0
            139.63759,35.68548,0
            139.63759,35.6855,0
            139.63759,35.6856,0
            139.6376,35.68566,0
            139.63759,35.68569,0
            139.63759,35.68571,0
            139.63759,35.68574,0
            139.63759,35.68583,0
            139.63768,35.68584,0
            139.63768,35.68586,0
            139.63764,35.68606,0
            139.63762,35.68613,0
            139.63762,35.68614,0
            139.63766,35.68615,0
            139.63787,35.68619,0
            139.63794,35.68619,0
            139.638,35.68619,0
            139.63809,35.6862,0
            139.63847,35.68625,0
            139.63867,35.68627,0
            139.63877,35.68629,0
            139.63882,35.68633,0
            139.63892,35.6864,0
            139.63895,35.68643,0
            139.639,35.68641,0
            139.63908,35.68639,0
            139.63917,35.68636,0
            139.63918,35.68642,0
            139.63921,35.68652,0
            139.63921,35.68657,0
            139.63924,35.68661,0
            139.63928,35.68663,0
            139.6393,35.68665,0
            139.63932,35.68667,0
            139.63934,35.68669,0
            139.63944,35.68681,0
            139.63945,35.68683,0
            139.63949,35.68681,0
            139.63962,35.68699,0
          </coordinates>
        </LineString>
      </Placemark>
      <Placemark>
        <name>日本、〒167-0051 東京都杉並区荻窪１丁目３７−１９</name>
        <styleUrl>#icon-1899-DB4436-nodesc</styleUrl>
        <Point>
          <coordinates>
            139.6213131,35.6948336,0
          </coordinates>
        </Point>
      </Placemark>
      <Placemark>
        <name>ポイント 1</name>
        <styleUrl>#icon-1899-DB4436-nodesc</styleUrl>
        <Point>
          <coordinates>
            139.6273664,35.6838807,0
          </coordinates>
        </Point>
      </Placemark>
      <Placemark>
        <name>三本松の丘</name>
        <styleUrl>#icon-1899-DB4436-nodesc</styleUrl>
        <Point>
          <coordinates>
            139.6396178,35.6869864,0
          </coordinates>
        </Point>
      </Placemark>
    </Folder>
  </Document>
</kml>
