<?xml version="1.0" encoding="UTF-8"?>
<kml xmlns="http://www.opengis.net/kml/2.2">
  <Document>
    <name>皇居近隣ホテル</name>
    <description/>
    <Style id="icon-1899-0288D1-nodesc-normal">
      <IconStyle>
        <color>ffd18802</color>
        <scale>1</scale>
        <Icon>
          <href>https://www.gstatic.com/mapspro/images/stock/503-wht-blank_maps.png</href>
        </Icon>
        <hotSpot x="32" xunits="pixels" y="64" yunits="insetPixels"/>
      </IconStyle>
      <LabelStyle>
        <scale>0</scale>
      </LabelStyle>
      <BalloonStyle>
        <text><![CDATA[<h3>$[name]</h3>]]></text>
      </BalloonStyle>
    </Style>
    <Style id="icon-1899-0288D1-nodesc-highlight">
      <IconStyle>
        <color>ffd18802</color>
        <scale>1</scale>
        <Icon>
          <href>https://www.gstatic.com/mapspro/images/stock/503-wht-blank_maps.png</href>
        </Icon>
        <hotSpot x="32" xunits="pixels" y="64" yunits="insetPixels"/>
      </IconStyle>
      <LabelStyle>
        <scale>1</scale>
      </LabelStyle>
      <BalloonStyle>
        <text><![CDATA[<h3>$[name]</h3>]]></text>
      </BalloonStyle>
    </Style>
    <StyleMap id="icon-1899-0288D1-nodesc">
      <Pair>
        <key>normal</key>
        <styleUrl>#icon-1899-0288D1-nodesc-normal</styleUrl>
      </Pair>
      <Pair>
        <key>highlight</key>
        <styleUrl>#icon-1899-0288D1-nodesc-highlight</styleUrl>
      </Pair>
    </StyleMap>
    <Folder>
      <name>無題のレイヤ</name>
      <Placemark>
        <name>アスコット丸の内東京</name>
        <styleUrl>#icon-1899-0288D1-nodesc</styleUrl>
        <Point>
          <coordinates>
            139.7632538,35.6864719,0
          </coordinates>
        </Point>
      </Placemark>
      <Placemark>
        <name>ザ・ペニンシュラ東京</name>
        <styleUrl>#icon-1899-0288D1-nodesc</styleUrl>
        <Point>
          <coordinates>
            139.7604704,35.6747591,0
          </coordinates>
        </Point>
      </Placemark>
      <Placemark>
        <name>パレスホテル東京</name>
        <styleUrl>#icon-1899-0288D1-nodesc</styleUrl>
        <Point>
          <coordinates>
            139.7612295,35.6845024,0
          </coordinates>
        </Point>
      </Placemark>
      <Placemark>
        <name>東京ステーションホテル</name>
        <styleUrl>#icon-1899-0288D1-nodesc</styleUrl>
        <Point>
          <coordinates>
            139.7658873,35.6809928,0
          </coordinates>
        </Point>
      </Placemark>
      <Placemark>
        <name>帝国ホテル 東京</name>
        <styleUrl>#icon-1899-0288D1-nodesc</styleUrl>
        <Point>
          <coordinates>
            139.7579015,35.672454,0
          </coordinates>
        </Point>
      </Placemark>
      <Placemark>
        <name>ザ・ラウンジ／ブルガリホテル東京</name>
        <styleUrl>#icon-1899-0288D1-nodesc</styleUrl>
        <Point>
          <coordinates>
            139.7689311,35.6794084,0
          </coordinates>
        </Point>
      </Placemark>
      <Placemark>
        <name>シャングリ・ラ 東京 / Shangri-La Tokyo</name>
        <styleUrl>#icon-1899-0288D1-nodesc</styleUrl>
        <Point>
          <coordinates>
            139.7693827,35.6824303,0
          </coordinates>
        </Point>
      </Placemark>
      <Placemark>
        <name>Aman Tokyo</name>
        <styleUrl>#icon-1899-0288D1-nodesc</styleUrl>
        <Point>
          <coordinates>
            139.7655445,35.6854887,0
          </coordinates>
        </Point>
      </Placemark>
      <Placemark>
        <name>フォーシーズンズホテル東京大手町</name>
        <styleUrl>#icon-1899-0288D1-nodesc</styleUrl>
        <Point>
          <coordinates>
            139.7632912,35.6877339,0
          </coordinates>
        </Point>
      </Placemark>
      <Placemark>
        <name>丸ノ内ホテル</name>
        <styleUrl>#icon-1899-0288D1-nodesc</styleUrl>
        <Point>
          <coordinates>
            139.766589,35.683357,0
          </coordinates>
        </Point>
      </Placemark>
      <Placemark>
        <name>第一ホテル東京</name>
        <styleUrl>#icon-1899-0288D1-nodesc</styleUrl>
        <Point>
          <coordinates>
            139.7572675,35.6686829,0
          </coordinates>
        </Point>
      </Placemark>
      <Placemark>
        <name>ホテルモントレ半蔵門</name>
        <styleUrl>#icon-1899-0288D1-nodesc</styleUrl>
        <Point>
          <coordinates>
            139.74212,35.686602,0
          </coordinates>
        </Point>
      </Placemark>
      <Placemark>
        <name>ホテルルポール麹町</name>
        <styleUrl>#icon-1899-0288D1-nodesc</styleUrl>
        <Point>
          <coordinates>
            139.7384816,35.6817908,0
          </coordinates>
        </Point>
      </Placemark>
      <Placemark>
        <name>都市センターホテル</name>
        <styleUrl>#icon-1899-0288D1-nodesc</styleUrl>
        <Point>
          <coordinates>
            139.7386081,35.68111,0
          </coordinates>
        </Point>
      </Placemark>
      <Placemark>
        <name>ザ・キャピトルホテル 東急</name>
        <styleUrl>#icon-1899-0288D1-nodesc</styleUrl>
        <Point>
          <coordinates>
            139.7407736,35.6739689,0
          </coordinates>
        </Point>
      </Placemark>
      <Placemark>
        <name>センチュリオンホテルレジデンシャル赤坂</name>
        <styleUrl>#icon-1899-0288D1-nodesc</styleUrl>
        <Point>
          <coordinates>
            139.7378414,35.6737801,0
          </coordinates>
        </Point>
      </Placemark>
      <Placemark>
        <name>ホテルリズベリオ 赤坂</name>
        <styleUrl>#icon-1899-0288D1-nodesc</styleUrl>
        <Point>
          <coordinates>
            139.7364586,35.6754922,0
          </coordinates>
        </Point>
      </Placemark>
      <Placemark>
        <name>ホテルメトロポリタンエドモント</name>
        <styleUrl>#icon-1899-0288D1-nodesc</styleUrl>
        <Point>
          <coordinates>
            139.7490517,35.7008059,0
          </coordinates>
        </Point>
      </Placemark>
      <Placemark>
        <name>アマンドホテル</name>
        <styleUrl>#icon-1899-0288D1-nodesc</styleUrl>
        <Point>
          <coordinates>
            139.754706,35.7057167,0
          </coordinates>
        </Point>
      </Placemark>
      <Placemark>
        <name>ザ ロイヤルパーク キャンバス 銀座コリドー</name>
        <styleUrl>#icon-1899-0288D1-nodesc</styleUrl>
        <Point>
          <coordinates>
            139.760533,35.6713972,0
          </coordinates>
        </Point>
      </Placemark>
      <Placemark>
        <name>ハイアット セントリック 銀座 東京</name>
        <styleUrl>#icon-1899-0288D1-nodesc</styleUrl>
        <Point>
          <coordinates>
            139.762253,35.6707458,0
          </coordinates>
        </Point>
      </Placemark>
      <Placemark>
        <name>ホテルグレイスリー銀座</name>
        <styleUrl>#icon-1899-0288D1-nodesc</styleUrl>
        <Point>
          <coordinates>
            139.7634714,35.66889,0
          </coordinates>
        </Point>
      </Placemark>
      <Placemark>
        <name>三井ガーデンホテル銀座五丁目</name>
        <styleUrl>#icon-1899-0288D1-nodesc</styleUrl>
        <Point>
          <coordinates>
            139.7667539,35.6688823,0
          </coordinates>
        </Point>
      </Placemark>
      <Placemark>
        <name>ザ ロイヤルパークホテル 銀座6丁目</name>
        <styleUrl>#icon-1899-0288D1-nodesc</styleUrl>
        <Point>
          <coordinates>
            139.7655746,35.6680386,0
          </coordinates>
        </Point>
      </Placemark>
      <Placemark>
        <name>アゴーラ 東京銀座</name>
        <styleUrl>#icon-1899-0288D1-nodesc</styleUrl>
        <Point>
          <coordinates>
            139.7671146,35.66846,0
          </coordinates>
        </Point>
      </Placemark>
      <Placemark>
        <name>ヴィアイン東銀座</name>
        <styleUrl>#icon-1899-0288D1-nodesc</styleUrl>
        <Point>
          <coordinates>
            139.7705112,35.6671334,0
          </coordinates>
        </Point>
      </Placemark>
    </Folder>
  </Document>
</kml>
