<?xml version="1.0" encoding="UTF-8"?>
<kml xmlns="http://www.opengis.net/kml/2.2">
  <Document>
    <name>秋葉原</name>
    <description/>
    <Style id="icon-1899-A52714-nodesc-normal">
      <IconStyle>
        <color>ff1427a5</color>
        <scale>1</scale>
        <Icon>
          <href>https://www.gstatic.com/mapspro/images/stock/503-wht-blank_maps.png</href>
        </Icon>
        <hotSpot x="32" xunits="pixels" y="64" yunits="insetPixels"/>
      </IconStyle>
      <LabelStyle>
        <scale>0</scale>
      </LabelStyle>
      <BalloonStyle>
        <text><![CDATA[<h3>$[name]</h3>]]></text>
      </BalloonStyle>
    </Style>
    <Style id="icon-1899-A52714-nodesc-highlight">
      <IconStyle>
        <color>ff1427a5</color>
        <scale>1</scale>
        <Icon>
          <href>https://www.gstatic.com/mapspro/images/stock/503-wht-blank_maps.png</href>
        </Icon>
        <hotSpot x="32" xunits="pixels" y="64" yunits="insetPixels"/>
      </IconStyle>
      <LabelStyle>
        <scale>1</scale>
      </LabelStyle>
      <BalloonStyle>
        <text><![CDATA[<h3>$[name]</h3>]]></text>
      </BalloonStyle>
    </Style>
    <StyleMap id="icon-1899-A52714-nodesc">
      <Pair>
        <key>normal</key>
        <styleUrl>#icon-1899-A52714-nodesc-normal</styleUrl>
      </Pair>
      <Pair>
        <key>highlight</key>
        <styleUrl>#icon-1899-A52714-nodesc-highlight</styleUrl>
      </Pair>
    </StyleMap>
    <Folder>
      <name>無題のレイヤ</name>
      <Placemark>
        <name>PCコンフル 秋葉原本店</name>
        <styleUrl>#icon-1899-A52714-nodesc</styleUrl>
        <Point>
          <coordinates>
            139.7702315,35.7002388,0
          </coordinates>
        </Point>
      </Placemark>
      <Placemark>
        <name>ショップインバース 秋葉原2号店</name>
        <styleUrl>#icon-1899-A52714-nodesc</styleUrl>
        <Point>
          <coordinates>
            139.7705504,35.700933,0
          </coordinates>
        </Point>
      </Placemark>
      <Placemark>
        <name>ポイント 2</name>
        <styleUrl>#icon-1899-A52714-nodesc</styleUrl>
        <Point>
          <coordinates>
            139.7704887,35.6989914,0
          </coordinates>
        </Point>
      </Placemark>
      <Placemark>
        <name>ショップインバース 秋葉原1号店</name>
        <styleUrl>#icon-1899-A52714-nodesc</styleUrl>
        <Point>
          <coordinates>
            139.770388,35.701134,0
          </coordinates>
        </Point>
      </Placemark>
      <Placemark>
        <name>千石電商 秋葉原本店</name>
        <styleUrl>#icon-1899-A52714-nodesc</styleUrl>
        <Point>
          <coordinates>
            139.7702522,35.6993201,0
          </coordinates>
        </Point>
      </Placemark>
      <Placemark>
        <name>東京レジャーランド 秋葉原２号店</name>
        <styleUrl>#icon-1899-A52714-nodesc</styleUrl>
        <Point>
          <coordinates>
            139.7719487,35.7007415,0
          </coordinates>
        </Point>
      </Placemark>
      <Placemark>
        <name>パズルショップ トリト</name>
        <styleUrl>#icon-1899-A52714-nodesc</styleUrl>
        <Point>
          <coordinates>
            139.7767009,35.7027447,0
          </coordinates>
        </Point>
      </Placemark>
      <Placemark>
        <name>千石電商 秋葉原本店</name>
        <styleUrl>#icon-1899-A52714-nodesc</styleUrl>
        <Point>
          <coordinates>
            139.7702522,35.6993201,0
          </coordinates>
        </Point>
      </Placemark>
      <Placemark>
        <name>やきとん元気 電気街口店</name>
        <styleUrl>#icon-1899-A52714-nodesc</styleUrl>
        <Point>
          <coordinates>
            139.7695668,35.6993443,0
          </coordinates>
        </Point>
      </Placemark>
      <Placemark>
        <name>紅とん 神田神保町店</name>
        <styleUrl>#icon-1899-A52714-nodesc</styleUrl>
        <Point>
          <coordinates>
            139.7607916,35.6953423,0
          </coordinates>
        </Point>
      </Placemark>
      <Placemark>
        <name>定額酒場 神田北口店</name>
        <styleUrl>#icon-1899-A52714-nodesc</styleUrl>
        <Point>
          <coordinates>
            139.7711451,35.693527,0
          </coordinates>
        </Point>
      </Placemark>
    </Folder>
  </Document>
</kml>
